,Name,Bundesland,Stadt,Straße,PLZ,Latitude,Longitude,ID,Gebäudekategorie,Kurzbeschreibung,Beschreibung,Preis (€),Bild-URL
0,Anna Meyer,Mecklenburg-Vorpommern,Rostock,Lange Straße,18055,54.089178,12.095027,1,Villa,Luxuriöse Villa mit beeindruckendem Blick.,"Diese Villa kombiniert moderne Architektur mit klassischer Eleganz. Großzügige Räume, ein Pool und eine edle Küche bieten höchsten Wohnkomfort. Ideal für Familien, die Wert auf Stil und Komfort legen.",1.924.099.87 €,https://images.unsplash.com/photo-1592181051148-dc7cf0dc51f6
3,Elias Wolf,Hessen,Wiesbaden,Marktplatz,65183,50.084457,8.247432,4,Haus,Charmantes Einfamilienhaus in einer ruhigen Straße.,Dieses Haus vereint klassischen Charme mit modernem Komfort. Die hochwertige Ausstattung und die großen Fenster sorgen für ein helles und freundliches Wohnambiente. In der Nachbarschaft befinden sich Spielplätze und Parks.,595.604.56 €,https://images.unsplash.com/photo-1597597922952-3ad4d096b5f2
8,Elias Schwarz,Bremen,Bremen,Ostertorsteinweg,28203,53.07817,8.799453,9,Villa,Großzügige Villa mit weitläufigem Garten.,Diese Villa bietet exklusives Wohnen in einer der besten Lagen der Stadt. Mit ihrer weitläufigen Terrasse und dem gepflegten Garten ist sie perfekt für anspruchsvolle Familien. Hochwertige Materialien und elegante Details prägen das Interieur.,1.121.097.50 €,https://images.unsplash.com/photo-1592181051148-dc7cf0dc51f6
9,Finn Schmitz,Niedersachsen,Oldenburg,Rathausplatz,26122,53.139691,8.213092,10,Villa,Exklusive Villa in gehobener Wohnlage.,"Eine Villa der Extraklasse: Großzügige Räume, hohe Decken und eine luxuriöse Ausstattung machen dieses Anwesen einzigartig. Der weitläufige Garten lädt zum Entspannen ein. Die Innenstadt ist in wenigen Minuten erreichbar.",4.930.734.38 €,https://images.unsplash.com/photo-1592181051148-dc7cf0dc51f6
11,Paul Koch,Bremen,Bremen,Am Wall,28195,53.077424,8.799691,12,Villa,Exklusive Villa in gehobener Wohnlage.,Diese Villa bietet exklusives Wohnen in einer der besten Lagen der Stadt. Mit ihrer weitläufigen Terrasse und dem gepflegten Garten ist sie perfekt für anspruchsvolle Familien. Hochwertige Materialien und elegante Details prägen das Interieur.,3.220.989.53 €,https://images.unsplash.com/photo-1613977257366-130f53a0161a
15,Paul Fischer,Rheinland-Pfalz,Mainz,Große Bleiche,55116,49.993441,8.242922,16,Villa,Exklusive Villa in gehobener Wohnlage.,"Diese Villa kombiniert moderne Architektur mit klassischer Eleganz. Großzügige Räume, ein Pool und eine edle Küche bieten höchsten Wohnkomfort. Ideal für Familien, die Wert auf Stil und Komfort legen.",4.000.895.48 €,https://images.unsplash.com/photo-1613977257366-130f53a0161a
22,Emma Weber,Brandenburg,Potsdam,Breite Straße,14467,52.395304,13.063717,23,Haus,Gemütliches Haus in einer grünen Umgebung.,Dieses Haus vereint klassischen Charme mit modernem Komfort. Die hochwertige Ausstattung und die großen Fenster sorgen für ein helles und freundliches Wohnambiente. In der Nachbarschaft befinden sich Spielplätze und Parks.,478.220.68 €,https://images.unsplash.com/photo-1600585154340-be6161a56a0c
23,Finn Wagner,Baden-Württemberg,Karlsruhe,Ettlinger Tor,76133,49.011036,8.405125,24,Villa,Exklusive Villa in gehobener Wohnlage.,"Diese Villa kombiniert moderne Architektur mit klassischer Eleganz. Großzügige Räume, ein Pool und eine edle Küche bieten höchsten Wohnkomfort. Ideal für Familien, die Wert auf Stil und Komfort legen.",3.463.148.92 €,https://images.unsplash.com/photo-1592181051148-dc7cf0dc51f6
24,Hannah Richter,Saarland,Saarbrücken,Rathausplatz,66111,49.244023,7.000236,25,Haus,Charmantes Einfamilienhaus in einer ruhigen Straße.,"Dieses Haus überzeugt durch seine großzügige Raumaufteilung und den gepflegten Garten. Ideal für Familien, die ein ruhiges Umfeld suchen. Die moderne Küche und das helle Wohnzimmer laden zum Verweilen ein. In der Nähe befinden sich Schulen und Kindergärten.",930.523.12 €,https://images.unsplash.com/photo-1600585154340-be6161a56a0c
28,Sophia Neumann,Niedersachsen,Hannover,Georgstraße,30159,52.378659,9.73378,29,Haus,Charmantes Einfamilienhaus in einer ruhigen Straße.,"Dieses Haus überzeugt durch seine großzügige Raumaufteilung und den gepflegten Garten. Ideal für Familien, die ein ruhiges Umfeld suchen. Die moderne Küche und das helle Wohnzimmer laden zum Verweilen ein. In der Nähe befinden sich Schulen und Kindergärten.",374.524.54 €,https://images.unsplash.com/photo-1600585154340-be6161a56a0c
29,Finn Krüger,Hessen,Wiesbaden,Wilhelmstraße,65183,50.086761,8.242627,30,Haus,Einladendes Haus in einem familienfreundlichen Viertel.,Dieses Haus vereint klassischen Charme mit modernem Komfort. Die hochwertige Ausstattung und die großen Fenster sorgen für ein helles und freundliches Wohnambiente. In der Nachbarschaft befinden sich Spielplätze und Parks.,820.622.23 €,https://images.unsplash.com/photo-1597597922952-3ad4d096b5f2
30,Maximilian Schmitz,Nordrhein-Westfalen,Dortmund,Westenhellweg,44137,51.518234,7.465643,31,Haus,Einladendes Haus in einem familienfreundlichen Viertel.,Dieses Haus vereint klassischen Charme mit modernem Komfort. Die hochwertige Ausstattung und die großen Fenster sorgen für ein helles und freundliches Wohnambiente. In der Nachbarschaft befinden sich Spielplätze und Parks.,848.594.43 €,https://images.unsplash.com/photo-1600585155031-34d0b7b91b77
31,Anna Zimmermann,Rheinland-Pfalz,Koblenz,Bahnhofstraße,56068,50.357556,7.583764,32,Wohnung,Modernes Apartment im zentralen Geschäftsviertel.,Diese renovierte Wohnung liegt in einem ruhigen Wohnviertel und besticht durch ihren klassischen Schnitt. Ein großzügiger Wohnbereich und ein geräumiges Schlafzimmer bieten viel Platz. Schulen und Parks sind bequem zu Fuß erreichbar.,447.620.33 €,https://images.unsplash.com/photo-1593088411905-9b7a2d7e6f3e
32,Finn Koch,Bremen,Bremen,Am Wall,28195,53.081263,8.796944,33,Villa,Großzügige Villa mit weitläufigem Garten.,"Diese Villa kombiniert moderne Architektur mit klassischer Eleganz. Großzügige Räume, ein Pool und eine edle Küche bieten höchsten Wohnkomfort. Ideal für Familien, die Wert auf Stil und Komfort legen.",4.118.646.78 €,https://images.unsplash.com/photo-1592181051148-dc7cf0dc51f6
34,Mia Hartmann,Thüringen,Erfurt,Anger,99084,50.976931,11.028746,35,Haus,Modernes Haus in einem aufstrebenden Wohngebiet.,Dieses Haus vereint klassischen Charme mit modernem Komfort. Die hochwertige Ausstattung und die großen Fenster sorgen für ein helles und freundliches Wohnambiente. In der Nachbarschaft befinden sich Spielplätze und Parks.,700.972.80 €,https://images.unsplash.com/photo-1597597922952-3ad4d096b5f2
35,Emma Meyer,Nordrhein-Westfalen,Düsseldorf,Königsallee,40212,51.226418,6.771495,36,Villa,Großzügige Villa mit weitläufigem Garten.,"Eine Villa der Extraklasse: Großzügige Räume, hohe Decken und eine luxuriöse Ausstattung machen dieses Anwesen einzigartig. Der weitläufige Garten lädt zum Entspannen ein. Die Innenstadt ist in wenigen Minuten erreichbar.",4.137.473.10 €,https://images.unsplash.com/photo-1592181051148-dc7cf0dc51f6
44,Lukas Hartmann,Rheinland-Pfalz,Koblenz,Rheinstraße,56068,50.356792,7.585497,45,Wohnung,Modernes Apartment im zentralen Geschäftsviertel.,Diese Wohnung bietet modernen Wohnkomfort in zentraler Lage. Die offene Raumgestaltung schafft ein großzügiges Raumgefühl. Die großen Fenster sorgen für viel Licht. Ideal für Singles oder Paare. Einkaufsmöglichkeiten und öffentliche Verkehrsmittel befinden sich in unmittelbarer Nähe.,411.826.00 €,https://images.unsplash.com/photo-1575086194456-debcdf9d8eb7
46,Jonas Weber,Niedersachsen,Braunschweig,Hagenmarkt,38100,52.26996,10.529718,47,Villa,Exklusive Villa in gehobener Wohnlage.,Diese Villa bietet exklusives Wohnen in einer der besten Lagen der Stadt. Mit ihrer weitläufigen Terrasse und dem gepflegten Garten ist sie perfekt für anspruchsvolle Familien. Hochwertige Materialien und elegante Details prägen das Interieur.,1.067.658.86 €,https://images.unsplash.com/photo-1613977257366-130f53a0161a
48,Leon Schröder,Berlin,Berlin,Kurfürstendamm,10719,52.518597,13.40764,49,Wohnung,Gemütliche Wohnung im Herzen der Stadt.,Diese renovierte Wohnung liegt in einem ruhigen Wohnviertel und besticht durch ihren klassischen Schnitt. Ein großzügiger Wohnbereich und ein geräumiges Schlafzimmer bieten viel Platz. Schulen und Parks sind bequem zu Fuß erreichbar.,247.803.10 €,https://images.unsplash.com/photo-1560180474-e8563fd75f98
50,Jonas Bauer,Saarland,Saarbrücken,Rathausplatz,66111,49.24272,6.992462,51,Villa,Exklusive Villa in gehobener Wohnlage.,"Diese Villa kombiniert moderne Architektur mit klassischer Eleganz. Großzügige Räume, ein Pool und eine edle Küche bieten höchsten Wohnkomfort. Ideal für Familien, die Wert auf Stil und Komfort legen.",3.572.430.39 €,https://images.unsplash.com/photo-1613977257366-130f53a0161a
56,Leon Schwarz,Bremen,Bremen,Am Wall,28195,53.077665,8.797342,57,Haus,Einladendes Haus in einem familienfreundlichen Viertel.,Dieses Haus vereint klassischen Charme mit modernem Komfort. Die hochwertige Ausstattung und die großen Fenster sorgen für ein helles und freundliches Wohnambiente. In der Nachbarschaft befinden sich Spielplätze und Parks.,409.749.48 €,https://images.unsplash.com/photo-1597597922952-3ad4d096b5f2
57,Lina Schneider,Brandenburg,Potsdam,Lindenstraße,14467,52.38641,13.063875,58,Haus,Gemütliches Haus in einer grünen Umgebung.,Ein Haus mit viel Potenzial: Die geräumigen Zimmer bieten vielfältige Nutzungsmöglichkeiten. Der Garten ist perfekt für entspannte Nachmittage. Einkaufsmöglichkeiten und Ärzte sind in wenigen Minuten erreichbar.,865.386.80 €,https://images.unsplash.com/photo-1600585154340-be6161a56a0c
60,Finn Schwarz,Niedersachsen,Hannover,Georgstraße,30159,52.377359,9.730023,61,Villa,Luxuriöse Villa mit beeindruckendem Blick.,Diese Villa bietet exklusives Wohnen in einer der besten Lagen der Stadt. Mit ihrer weitläufigen Terrasse und dem gepflegten Garten ist sie perfekt für anspruchsvolle Familien. Hochwertige Materialien und elegante Details prägen das Interieur.,1.787.543.52 €,https://images.unsplash.com/photo-1592181051148-dc7cf0dc51f6
67,Lukas Becker,Hessen,Frankfurt,Zeil,60313,50.113649,8.683942,68,Haus,Charmantes Einfamilienhaus in einer ruhigen Straße.,Dieses Haus vereint klassischen Charme mit modernem Komfort. Die hochwertige Ausstattung und die großen Fenster sorgen für ein helles und freundliches Wohnambiente. In der Nachbarschaft befinden sich Spielplätze und Parks.,834.150.50 €,https://images.unsplash.com/photo-1600585154340-be6161a56a0c
68,Hannah Schneider,Nordrhein-Westfalen,Köln,Schildergasse,50667,50.939864,6.960303,69,Wohnung,Gemütliche Wohnung im Herzen der Stadt.,Diese renovierte Wohnung liegt in einem ruhigen Wohnviertel und besticht durch ihren klassischen Schnitt. Ein großzügiger Wohnbereich und ein geräumiges Schlafzimmer bieten viel Platz. Schulen und Parks sind bequem zu Fuß erreichbar.,468.321.71 €,https://images.unsplash.com/photo-1593088411905-9b7a2d7e6f3e
69,Emma Meyer,Nordrhein-Westfalen,Dortmund,Hansastraße,44137,51.5148,7.462499,70,Villa,Elegante Villa in einem ruhigen Vorort.,Diese Villa bietet exklusives Wohnen in einer der besten Lagen der Stadt. Mit ihrer weitläufigen Terrasse und dem gepflegten Garten ist sie perfekt für anspruchsvolle Familien. Hochwertige Materialien und elegante Details prägen das Interieur.,4.173.248.77 €,https://images.unsplash.com/photo-1592181051148-dc7cf0dc51f6
70,Hannah Schwarz,Niedersachsen,Braunschweig,Dammstraße,38100,52.270354,10.530947,71,Villa,Luxuriöse Villa mit beeindruckendem Blick.,"Diese Villa kombiniert moderne Architektur mit klassischer Eleganz. Großzügige Räume, ein Pool und eine edle Küche bieten höchsten Wohnkomfort. Ideal für Familien, die Wert auf Stil und Komfort legen.",3.213.727.03 €,https://images.unsplash.com/photo-1613977257366-130f53a0161a
86,Elias Zimmermann,Sachsen-Anhalt,Magdeburg,Ernst-Reuter-Allee,39104,52.117203,11.63122,87,Villa,Großzügige Villa mit weitläufigem Garten.,"Diese Villa kombiniert moderne Architektur mit klassischer Eleganz. Großzügige Räume, ein Pool und eine edle Küche bieten höchsten Wohnkomfort. Ideal für Familien, die Wert auf Stil und Komfort legen.",1.662.805.09 €,https://images.unsplash.com/photo-1592181051148-dc7cf0dc51f6
94,Maximilian Koch,Bremen,Bremen,Am Wall,28195,53.080481,8.801162,95,Villa,Exklusive Villa in gehobener Wohnlage.,"Diese Villa kombiniert moderne Architektur mit klassischer Eleganz. Großzügige Räume, ein Pool und eine edle Küche bieten höchsten Wohnkomfort. Ideal für Familien, die Wert auf Stil und Komfort legen.",3.211.230.18 €,https://images.unsplash.com/photo-1592181051148-dc7cf0dc51f6
101,Sophia Wolf,Schleswig-Holstein,Kiel,Rathausstraße,24103,54.318656,10.124505,102,Villa,Luxuriöse Villa mit beeindruckendem Blick.,"Eine Villa der Extraklasse: Großzügige Räume, hohe Decken und eine luxuriöse Ausstattung machen dieses Anwesen einzigartig. Der weitläufige Garten lädt zum Entspannen ein. Die Innenstadt ist in wenigen Minuten erreichbar.",2.903.075.78 €,https://images.unsplash.com/photo-1613977257366-130f53a0161a
102,Mia Müller,Baden-Württemberg,Stuttgart,Königstraße,70173,48.773541,9.184012,103,Wohnung,Gemütliche Wohnung im Herzen der Stadt.,"Erleben Sie urbanes Wohnen in dieser stilvollen Wohnung. Die moderne Küche ist perfekt für Hobbyköche. Die Wohnung verfügt über einen kleinen Balkon, der zum Entspannen einlädt. In der Nähe befinden sich zahlreiche Cafés und Restaurants.",472.636.68 €,https://images.unsplash.com/photo-1560180474-e8563fd75f98
106,Maximilian Becker,Niedersachsen,Osnabrück,Neumarkt,49074,52.283098,8.045594,107,Villa,Elegante Villa in einem ruhigen Vorort.,"Eine Villa der Extraklasse: Großzügige Räume, hohe Decken und eine luxuriöse Ausstattung machen dieses Anwesen einzigartig. Der weitläufige Garten lädt zum Entspannen ein. Die Innenstadt ist in wenigen Minuten erreichbar.",4.146.747.79 €,https://images.unsplash.com/photo-1592181051148-dc7cf0dc51f6
108,Julia Fischer,Rheinland-Pfalz,Koblenz,Löhrstraße,56068,50.361254,7.585254,109,Villa,Luxuriöse Villa mit beeindruckendem Blick.,"Eine Villa der Extraklasse: Großzügige Räume, hohe Decken und eine luxuriöse Ausstattung machen dieses Anwesen einzigartig. Der weitläufige Garten lädt zum Entspannen ein. Die Innenstadt ist in wenigen Minuten erreichbar.",1.985.349.23 €,https://images.unsplash.com/photo-1592181051148-dc7cf0dc51f6
110,Luis Schneider,Schleswig-Holstein,Kiel,Rathausstraße,24103,54.320646,10.122251,111,Villa,Exklusive Villa in gehobener Wohnlage.,Diese Villa bietet exklusives Wohnen in einer der besten Lagen der Stadt. Mit ihrer weitläufigen Terrasse und dem gepflegten Garten ist sie perfekt für anspruchsvolle Familien. Hochwertige Materialien und elegante Details prägen das Interieur.,3.500.752.94 €,https://images.unsplash.com/photo-1592181051148-dc7cf0dc51f6
112,Paul Krüger,Hessen,Darmstadt,Marktplatz,64283,49.875776,8.648749,113,Haus,Charmantes Einfamilienhaus in einer ruhigen Straße.,"Dieses Haus überzeugt durch seine großzügige Raumaufteilung und den gepflegten Garten. Ideal für Familien, die ein ruhiges Umfeld suchen. Die moderne Küche und das helle Wohnzimmer laden zum Verweilen ein. In der Nähe befinden sich Schulen und Kindergärten.",746.122.29 €,https://images.unsplash.com/photo-1600585154340-be6161a56a0c
114,Paul Schröder,Thüringen,Erfurt,Bahnhofstraße,99084,50.979994,11.034115,115,Wohnung,Stilvolles Studio in der belebten Innenstadt.,Diese renovierte Wohnung liegt in einem ruhigen Wohnviertel und besticht durch ihren klassischen Schnitt. Ein großzügiger Wohnbereich und ein geräumiges Schlafzimmer bieten viel Platz. Schulen und Parks sind bequem zu Fuß erreichbar.,253.188.12 €,https://images.unsplash.com/photo-1575086194456-debcdf9d8eb7
116,Lina Hartmann,Baden-Württemberg,Freiburg,Augustinerplatz,79098,48.001992,7.838248,117,Haus,Einladendes Haus in einem familienfreundlichen Viertel.,"Dieses Haus überzeugt durch seine großzügige Raumaufteilung und den gepflegten Garten. Ideal für Familien, die ein ruhiges Umfeld suchen. Die moderne Küche und das helle Wohnzimmer laden zum Verweilen ein. In der Nähe befinden sich Schulen und Kindergärten.",598.984.11 €,https://images.unsplash.com/photo-1600585154340-be6161a56a0c
118,Lukas Fischer,Bayern,Nürnberg,Königstraße,90402,49.45222,11.073192,119,Wohnung,Modernes Apartment im zentralen Geschäftsviertel.,"Erleben Sie urbanes Wohnen in dieser stilvollen Wohnung. Die moderne Küche ist perfekt für Hobbyköche. Die Wohnung verfügt über einen kleinen Balkon, der zum Entspannen einlädt. In der Nähe befinden sich zahlreiche Cafés und Restaurants.",299.254.09 €,https://images.unsplash.com/photo-1575086194456-debcdf9d8eb7
121,Noah Schmidt,Niedersachsen,Hannover,Georgstraße,30159,52.37777,9.729914,122,Haus,Gemütliches Haus in einer grünen Umgebung.,"Dieses Haus überzeugt durch seine großzügige Raumaufteilung und den gepflegten Garten. Ideal für Familien, die ein ruhiges Umfeld suchen. Die moderne Küche und das helle Wohnzimmer laden zum Verweilen ein. In der Nähe befinden sich Schulen und Kindergärten.",944.164.54 €,https://images.unsplash.com/photo-1600585155031-34d0b7b91b77
126,Noah Wagner,Berlin,Berlin,Alexanderplatz,10178,52.51547,13.404984,127,Wohnung,Modernes Apartment im zentralen Geschäftsviertel.,"Erleben Sie urbanes Wohnen in dieser stilvollen Wohnung. Die moderne Küche ist perfekt für Hobbyköche. Die Wohnung verfügt über einen kleinen Balkon, der zum Entspannen einlädt. In der Nähe befinden sich zahlreiche Cafés und Restaurants.",210.675.85 €,https://images.unsplash.com/photo-1593088411905-9b7a2d7e6f3e
127,Finn Zimmermann,Saarland,Saarbrücken,Rathausplatz,66111,49.243138,6.997323,128,Haus,Charmantes Einfamilienhaus in einer ruhigen Straße.,Dieses Haus vereint klassischen Charme mit modernem Komfort. Die hochwertige Ausstattung und die großen Fenster sorgen für ein helles und freundliches Wohnambiente. In der Nachbarschaft befinden sich Spielplätze und Parks.,324.612.43 €,https://images.unsplash.com/photo-1600585155031-34d0b7b91b77
130,Finn Krüger,Nordrhein-Westfalen,Dortmund,Hansastraße,44137,51.513352,7.466354,131,Haus,Gemütliches Haus in einer grünen Umgebung.,Ein Haus mit viel Potenzial: Die geräumigen Zimmer bieten vielfältige Nutzungsmöglichkeiten. Der Garten ist perfekt für entspannte Nachmittage. Einkaufsmöglichkeiten und Ärzte sind in wenigen Minuten erreichbar.,774.393.82 €,https://images.unsplash.com/photo-1600585154340-be6161a56a0c
131,Maximilian Bauer,Rheinland-Pfalz,Koblenz,Löhrstraße,56068,50.355943,7.591429,132,Villa,Exklusive Villa in gehobener Wohnlage.,"Diese Villa kombiniert moderne Architektur mit klassischer Eleganz. Großzügige Räume, ein Pool und eine edle Küche bieten höchsten Wohnkomfort. Ideal für Familien, die Wert auf Stil und Komfort legen.",4.754.509.20 €,https://images.unsplash.com/photo-1613977257366-130f53a0161a
133,Lina Fischer,Niedersachsen,Osnabrück,Große Straße,49074,52.280387,8.045278,134,Villa,Großzügige Villa mit weitläufigem Garten.,Diese Villa bietet exklusives Wohnen in einer der besten Lagen der Stadt. Mit ihrer weitläufigen Terrasse und dem gepflegten Garten ist sie perfekt für anspruchsvolle Familien. Hochwertige Materialien und elegante Details prägen das Interieur.,4.143.568.39 €,https://images.unsplash.com/photo-1592181051148-dc7cf0dc51f6
136,Hannah Krüger,Hamburg,Hamburg,Mönckebergstraße,20095,53.549655,9.99838,137,Wohnung,Stilvolles Studio in der belebten Innenstadt.,"Erleben Sie urbanes Wohnen in dieser stilvollen Wohnung. Die moderne Küche ist perfekt für Hobbyköche. Die Wohnung verfügt über einen kleinen Balkon, der zum Entspannen einlädt. In der Nähe befinden sich zahlreiche Cafés und Restaurants.",151.692.60 €,https://images.unsplash.com/photo-1593088411905-9b7a2d7e6f3e
140,Finn Klein,Brandenburg,Potsdam,Lindenstraße,14467,52.391596,13.063883,141,Villa,Exklusive Villa in gehobener Wohnlage.,"Diese Villa kombiniert moderne Architektur mit klassischer Eleganz. Großzügige Räume, ein Pool und eine edle Küche bieten höchsten Wohnkomfort. Ideal für Familien, die Wert auf Stil und Komfort legen.",2.553.514.49 €,https://images.unsplash.com/photo-1613977257366-130f53a0161a
147,Elias Hartmann,Nordrhein-Westfalen,Düsseldorf,Schadowstraße,40212,51.228302,6.773799,148,Villa,Elegante Villa in einem ruhigen Vorort.,"Eine Villa der Extraklasse: Großzügige Räume, hohe Decken und eine luxuriöse Ausstattung machen dieses Anwesen einzigartig. Der weitläufige Garten lädt zum Entspannen ein. Die Innenstadt ist in wenigen Minuten erreichbar.",4.450.322.78 €,https://images.unsplash.com/photo-1592181051148-dc7cf0dc51f6
163,Jonas Müller,Hamburg,Hamburg,Mönckebergstraße,20095,53.554527,9.992079,164,Wohnung,Gemütliche Wohnung im Herzen der Stadt.,Diese Wohnung bietet modernen Wohnkomfort in zentraler Lage. Die offene Raumgestaltung schafft ein großzügiges Raumgefühl. Die großen Fenster sorgen für viel Licht. Ideal für Singles oder Paare. Einkaufsmöglichkeiten und öffentliche Verkehrsmittel befinden sich in unmittelbarer Nähe.,190.870.22 €,https://images.unsplash.com/photo-1560180474-e8563fd75f98
164,Julia Neumann,Hamburg,Hamburg,Mönckebergstraße,20095,53.547967,9.988751,165,Wohnung,Renovierte Wohnung in einer ruhigen Wohngegend.,Diese renovierte Wohnung liegt in einem ruhigen Wohnviertel und besticht durch ihren klassischen Schnitt. Ein großzügiger Wohnbereich und ein geräumiges Schlafzimmer bieten viel Platz. Schulen und Parks sind bequem zu Fuß erreichbar.,390.430.86 €,https://images.unsplash.com/photo-1593088411905-9b7a2d7e6f3e
166,Ben Krüger,Berlin,Berlin,Kurfürstendamm,10719,52.52178,13.404499,167,Wohnung,Renovierte Wohnung in einer ruhigen Wohngegend.,Diese Wohnung bietet modernen Wohnkomfort in zentraler Lage. Die offene Raumgestaltung schafft ein großzügiges Raumgefühl. Die großen Fenster sorgen für viel Licht. Ideal für Singles oder Paare. Einkaufsmöglichkeiten und öffentliche Verkehrsmittel befinden sich in unmittelbarer Nähe.,396.965.46 €,https://images.unsplash.com/photo-1593088411905-9b7a2d7e6f3e
168,Lina Becker,Rheinland-Pfalz,Mainz,Große Bleiche,55116,49.990839,8.248931,169,Haus,Gemütliches Haus in einer grünen Umgebung.,Dieses Haus vereint klassischen Charme mit modernem Komfort. Die hochwertige Ausstattung und die großen Fenster sorgen für ein helles und freundliches Wohnambiente. In der Nachbarschaft befinden sich Spielplätze und Parks.,848.080.43 €,https://images.unsplash.com/photo-1597597922952-3ad4d096b5f2
169,Noah Schmitz,Niedersachsen,Oldenburg,Lange Straße,26122,53.141999,8.216587,170,Haus,Gemütliches Haus in einer grünen Umgebung.,Ein Haus mit viel Potenzial: Die geräumigen Zimmer bieten vielfältige Nutzungsmöglichkeiten. Der Garten ist perfekt für entspannte Nachmittage. Einkaufsmöglichkeiten und Ärzte sind in wenigen Minuten erreichbar.,818.100.15 €,https://images.unsplash.com/photo-1597597922952-3ad4d096b5f2
170,Paul Becker,Baden-Württemberg,Stuttgart,Calwer Straße,70173,48.772727,9.18445,171,Wohnung,Modernes Apartment im zentralen Geschäftsviertel.,"Erleben Sie urbanes Wohnen in dieser stilvollen Wohnung. Die moderne Küche ist perfekt für Hobbyköche. Die Wohnung verfügt über einen kleinen Balkon, der zum Entspannen einlädt. In der Nähe befinden sich zahlreiche Cafés und Restaurants.",331.138.28 €,https://images.unsplash.com/photo-1593088411905-9b7a2d7e6f3e
172,Maximilian Bauer,Baden-Württemberg,Freiburg,Kaiser-Joseph-Straße,79098,47.99935,7.840793,173,Villa,Luxuriöse Villa mit beeindruckendem Blick.,"Eine Villa der Extraklasse: Großzügige Räume, hohe Decken und eine luxuriöse Ausstattung machen dieses Anwesen einzigartig. Der weitläufige Garten lädt zum Entspannen ein. Die Innenstadt ist in wenigen Minuten erreichbar.",2.466.578.90 €,https://images.unsplash.com/photo-1592181051148-dc7cf0dc51f6
177,Anna Bauer,Berlin,Berlin,Kurfürstendamm,10719,52.520932,13.406835,178,Wohnung,Renovierte Wohnung in einer ruhigen Wohngegend.,Diese renovierte Wohnung liegt in einem ruhigen Wohnviertel und besticht durch ihren klassischen Schnitt. Ein großzügiger Wohnbereich und ein geräumiges Schlafzimmer bieten viel Platz. Schulen und Parks sind bequem zu Fuß erreichbar.,455.049.95 €,https://images.unsplash.com/photo-1560180474-e8563fd75f98
179,Ben Wagner,Sachsen-Anhalt,Magdeburg,Ernst-Reuter-Allee,39104,52.116571,11.626683,180,Haus,Charmantes Einfamilienhaus in einer ruhigen Straße.,Ein Haus mit viel Potenzial: Die geräumigen Zimmer bieten vielfältige Nutzungsmöglichkeiten. Der Garten ist perfekt für entspannte Nachmittage. Einkaufsmöglichkeiten und Ärzte sind in wenigen Minuten erreichbar.,362.433.80 €,https://images.unsplash.com/photo-1600585154340-be6161a56a0c
183,Emma Krüger,Bremen,Bremen,Ostertorsteinweg,28203,53.079425,8.803326,184,Villa,Großzügige Villa mit weitläufigem Garten.,Diese Villa bietet exklusives Wohnen in einer der besten Lagen der Stadt. Mit ihrer weitläufigen Terrasse und dem gepflegten Garten ist sie perfekt für anspruchsvolle Familien. Hochwertige Materialien und elegante Details prägen das Interieur.,1.390.378.72 €,https://images.unsplash.com/photo-1592181051148-dc7cf0dc51f6
184,Lea Zimmermann,Sachsen-Anhalt,Magdeburg,Ernst-Reuter-Allee,39104,52.119241,11.631157,185,Villa,Elegante Villa in einem ruhigen Vorort.,"Diese Villa kombiniert moderne Architektur mit klassischer Eleganz. Großzügige Räume, ein Pool und eine edle Küche bieten höchsten Wohnkomfort. Ideal für Familien, die Wert auf Stil und Komfort legen.",4.516.608.74 €,https://images.unsplash.com/photo-1592181051148-dc7cf0dc51f6
185,Lea Wolf,Rheinland-Pfalz,Mainz,Große Bleiche,55116,49.995813,8.245394,186,Villa,Exklusive Villa in gehobener Wohnlage.,Diese Villa bietet exklusives Wohnen in einer der besten Lagen der Stadt. Mit ihrer weitläufigen Terrasse und dem gepflegten Garten ist sie perfekt für anspruchsvolle Familien. Hochwertige Materialien und elegante Details prägen das Interieur.,1.885.932.08 €,https://images.unsplash.com/photo-1592181051148-dc7cf0dc51f6
187,Emma Klein,Thüringen,Erfurt,Anger,99084,50.979682,11.028051,188,Villa,Elegante Villa in einem ruhigen Vorort.,Diese Villa bietet exklusives Wohnen in einer der besten Lagen der Stadt. Mit ihrer weitläufigen Terrasse und dem gepflegten Garten ist sie perfekt für anspruchsvolle Familien. Hochwertige Materialien und elegante Details prägen das Interieur.,4.030.348.96 €,https://images.unsplash.com/photo-1592181051148-dc7cf0dc51f6
189,Finn Schröder,Nordrhein-Westfalen,Essen,Limbecker Platz,45127,51.45382,7.015618,190,Villa,Großzügige Villa mit weitläufigem Garten.,"Eine Villa der Extraklasse: Großzügige Räume, hohe Decken und eine luxuriöse Ausstattung machen dieses Anwesen einzigartig. Der weitläufige Garten lädt zum Entspannen ein. Die Innenstadt ist in wenigen Minuten erreichbar.",4.098.688.65 €,https://images.unsplash.com/photo-1592181051148-dc7cf0dc51f6
192,Luis Zimmermann,Baden-Württemberg,Freiburg,Augustinerplatz,79098,47.996772,7.839594,193,Villa,Elegante Villa in einem ruhigen Vorort.,"Eine Villa der Extraklasse: Großzügige Räume, hohe Decken und eine luxuriöse Ausstattung machen dieses Anwesen einzigartig. Der weitläufige Garten lädt zum Entspannen ein. Die Innenstadt ist in wenigen Minuten erreichbar.",3.319.493.02 €,https://images.unsplash.com/photo-1613977257366-130f53a0161a
196,Felix Richter,Bremen,Bremen,Am Wall,28195,53.075421,8.796938,197,Haus,Einladendes Haus in einem familienfreundlichen Viertel.,"Dieses Haus überzeugt durch seine großzügige Raumaufteilung und den gepflegten Garten. Ideal für Familien, die ein ruhiges Umfeld suchen. Die moderne Küche und das helle Wohnzimmer laden zum Verweilen ein. In der Nähe befinden sich Schulen und Kindergärten.",772.064.48 €,https://images.unsplash.com/photo-1600585155031-34d0b7b91b77
198,Sophia Hartmann,Bremen,Bremen,Ostertorsteinweg,28203,53.075836,8.798078,199,Haus,Einladendes Haus in einem familienfreundlichen Viertel.,Dieses Haus vereint klassischen Charme mit modernem Komfort. Die hochwertige Ausstattung und die großen Fenster sorgen für ein helles und freundliches Wohnambiente. In der Nachbarschaft befinden sich Spielplätze und Parks.,760.517.56 €,https://images.unsplash.com/photo-1597597922952-3ad4d096b5f2
201,Paul Schröder,Bremen,Bremen,Am Wall,28195,53.07813,8.797419,202,Villa,Exklusive Villa in gehobener Wohnlage.,Diese Villa bietet exklusives Wohnen in einer der besten Lagen der Stadt. Mit ihrer weitläufigen Terrasse und dem gepflegten Garten ist sie perfekt für anspruchsvolle Familien. Hochwertige Materialien und elegante Details prägen das Interieur.,3.470.728.70 €,https://images.unsplash.com/photo-1613977257366-130f53a0161a
205,Elias Schmidt,Bayern,Nürnberg,Lorenzer Platz,90402,49.448304,11.07324,206,Haus,Einladendes Haus in einem familienfreundlichen Viertel.,"Dieses Haus überzeugt durch seine großzügige Raumaufteilung und den gepflegten Garten. Ideal für Familien, die ein ruhiges Umfeld suchen. Die moderne Küche und das helle Wohnzimmer laden zum Verweilen ein. In der Nähe befinden sich Schulen und Kindergärten.",449.963.60 €,https://images.unsplash.com/photo-1600585154340-be6161a56a0c
214,Mia Fischer,Bremen,Bremen,Schlachte,28195,53.082231,8.799671,215,Haus,Modernes Haus in einem aufstrebenden Wohngebiet.,Dieses Haus vereint klassischen Charme mit modernem Komfort. Die hochwertige Ausstattung und die großen Fenster sorgen für ein helles und freundliches Wohnambiente. In der Nachbarschaft befinden sich Spielplätze und Parks.,752.142.24 €,https://images.unsplash.com/photo-1600585154340-be6161a56a0c
215,Emma Wolf,Baden-Württemberg,Freiburg,Augustinerplatz,79098,48.002691,7.844117,216,Haus,Einladendes Haus in einem familienfreundlichen Viertel.,"Dieses Haus überzeugt durch seine großzügige Raumaufteilung und den gepflegten Garten. Ideal für Familien, die ein ruhiges Umfeld suchen. Die moderne Küche und das helle Wohnzimmer laden zum Verweilen ein. In der Nähe befinden sich Schulen und Kindergärten.",587.053.01 €,https://images.unsplash.com/photo-1600585155031-34d0b7b91b77
217,Jonas Schmidt,Brandenburg,Potsdam,Brandenburger Straße,14467,52.394715,13.06199,218,Haus,Charmantes Einfamilienhaus in einer ruhigen Straße.,"Dieses Haus überzeugt durch seine großzügige Raumaufteilung und den gepflegten Garten. Ideal für Familien, die ein ruhiges Umfeld suchen. Die moderne Küche und das helle Wohnzimmer laden zum Verweilen ein. In der Nähe befinden sich Schulen und Kindergärten.",500.782.91 €,https://images.unsplash.com/photo-1600585154340-be6161a56a0c
218,Mia Neumann,Hamburg,Hamburg,Mönckebergstraße,20095,53.548377,9.990528,219,Wohnung,Stilvolles Studio in der belebten Innenstadt.,Diese Wohnung bietet modernen Wohnkomfort in zentraler Lage. Die offene Raumgestaltung schafft ein großzügiges Raumgefühl. Die großen Fenster sorgen für viel Licht. Ideal für Singles oder Paare. Einkaufsmöglichkeiten und öffentliche Verkehrsmittel befinden sich in unmittelbarer Nähe.,443.877.65 €,https://images.unsplash.com/photo-1560180474-e8563fd75f98
219,Mia Krüger,Hessen,Darmstadt,Marktplatz,64283,49.872581,8.647914,220,Haus,Einladendes Haus in einem familienfreundlichen Viertel.,Dieses Haus vereint klassischen Charme mit modernem Komfort. Die hochwertige Ausstattung und die großen Fenster sorgen für ein helles und freundliches Wohnambiente. In der Nachbarschaft befinden sich Spielplätze und Parks.,402.943.18 €,https://images.unsplash.com/photo-1600585154340-be6161a56a0c
220,Felix Bauer,Hessen,Kassel,Friedrichsplatz,34117,51.309483,9.482382,221,Villa,Luxuriöse Villa mit beeindruckendem Blick.,"Diese Villa kombiniert moderne Architektur mit klassischer Eleganz. Großzügige Räume, ein Pool und eine edle Küche bieten höchsten Wohnkomfort. Ideal für Familien, die Wert auf Stil und Komfort legen.",1.739.910.64 €,https://images.unsplash.com/photo-1592181051148-dc7cf0dc51f6
222,Luis Koch,Hamburg,Hamburg,Reeperbahn,20359,53.550744,9.995231,223,Wohnung,Renovierte Wohnung in einer ruhigen Wohngegend.,"Erleben Sie urbanes Wohnen in dieser stilvollen Wohnung. Die moderne Küche ist perfekt für Hobbyköche. Die Wohnung verfügt über einen kleinen Balkon, der zum Entspannen einlädt. In der Nähe befinden sich zahlreiche Cafés und Restaurants.",385.714.45 €,https://images.unsplash.com/photo-1593088411905-9b7a2d7e6f3e
227,Maximilian Zimmermann,Schleswig-Holstein,Kiel,Holstenstraße,24103,54.319333,10.119316,228,Villa,Exklusive Villa in gehobener Wohnlage.,Diese Villa bietet exklusives Wohnen in einer der besten Lagen der Stadt. Mit ihrer weitläufigen Terrasse und dem gepflegten Garten ist sie perfekt für anspruchsvolle Familien. Hochwertige Materialien und elegante Details prägen das Interieur.,3.736.396.08 €,https://images.unsplash.com/photo-1592181051148-dc7cf0dc51f6
228,Mia Neumann,Mecklenburg-Vorpommern,Rostock,Am Brink,18055,54.092607,12.099333,229,Villa,Großzügige Villa mit weitläufigem Garten.,"Diese Villa kombiniert moderne Architektur mit klassischer Eleganz. Großzügige Räume, ein Pool und eine edle Küche bieten höchsten Wohnkomfort. Ideal für Familien, die Wert auf Stil und Komfort legen.",1.133.721.71 €,https://images.unsplash.com/photo-1592181051148-dc7cf0dc51f6
230,Leon Hartmann,Niedersachsen,Braunschweig,Dammstraße,38100,52.26608,10.528354,231,Villa,Luxuriöse Villa mit beeindruckendem Blick.,"Diese Villa kombiniert moderne Architektur mit klassischer Eleganz. Großzügige Räume, ein Pool und eine edle Küche bieten höchsten Wohnkomfort. Ideal für Familien, die Wert auf Stil und Komfort legen.",1.613.372.46 €,https://images.unsplash.com/photo-1592181051148-dc7cf0dc51f6
231,Ben Hartmann,Bremen,Bremen,Schlachte,28195,53.077331,8.802383,232,Villa,Exklusive Villa in gehobener Wohnlage.,"Eine Villa der Extraklasse: Großzügige Räume, hohe Decken und eine luxuriöse Ausstattung machen dieses Anwesen einzigartig. Der weitläufige Garten lädt zum Entspannen ein. Die Innenstadt ist in wenigen Minuten erreichbar.",3.854.173.48 €,https://images.unsplash.com/photo-1613977257366-130f53a0161a
245,Felix Klein,Bremen,Bremen,Schlachte,28195,53.076246,8.796873,246,Villa,Exklusive Villa in gehobener Wohnlage.,Diese Villa bietet exklusives Wohnen in einer der besten Lagen der Stadt. Mit ihrer weitläufigen Terrasse und dem gepflegten Garten ist sie perfekt für anspruchsvolle Familien. Hochwertige Materialien und elegante Details prägen das Interieur.,2.696.829.69 €,https://images.unsplash.com/photo-1592181051148-dc7cf0dc51f6
248,Finn Meyer,Bremen,Bremen,Schlachte,28195,53.082084,8.796901,249,Haus,Charmantes Einfamilienhaus in einer ruhigen Straße.,Ein Haus mit viel Potenzial: Die geräumigen Zimmer bieten vielfältige Nutzungsmöglichkeiten. Der Garten ist perfekt für entspannte Nachmittage. Einkaufsmöglichkeiten und Ärzte sind in wenigen Minuten erreichbar.,706.398.84 €,https://images.unsplash.com/photo-1597597922952-3ad4d096b5f2
250,Noah Schmitz,Bremen,Bremen,Schlachte,28195,53.079996,8.797082,251,Haus,Charmantes Einfamilienhaus in einer ruhigen Straße.,Ein Haus mit viel Potenzial: Die geräumigen Zimmer bieten vielfältige Nutzungsmöglichkeiten. Der Garten ist perfekt für entspannte Nachmittage. Einkaufsmöglichkeiten und Ärzte sind in wenigen Minuten erreichbar.,665.305.24 €,https://images.unsplash.com/photo-1597597922952-3ad4d096b5f2
251,Jonas Müller,Berlin,Berlin,Alexanderplatz,10178,52.519668,13.403683,252,Wohnung,Modernes Apartment im zentralen Geschäftsviertel.,"Erleben Sie urbanes Wohnen in dieser stilvollen Wohnung. Die moderne Küche ist perfekt für Hobbyköche. Die Wohnung verfügt über einen kleinen Balkon, der zum Entspannen einlädt. In der Nähe befinden sich zahlreiche Cafés und Restaurants.",164.593.63 €,https://images.unsplash.com/photo-1575086194456-debcdf9d8eb7
261,Ben Krüger,Nordrhein-Westfalen,Essen,Viehofer Platz,45127,51.451342,7.013634,262,Villa,Exklusive Villa in gehobener Wohnlage.,"Diese Villa kombiniert moderne Architektur mit klassischer Eleganz. Großzügige Räume, ein Pool und eine edle Küche bieten höchsten Wohnkomfort. Ideal für Familien, die Wert auf Stil und Komfort legen.",3.176.759.57 €,https://images.unsplash.com/photo-1592181051148-dc7cf0dc51f6
262,Emma Klein,Nordrhein-Westfalen,Dortmund,Hansastraße,44137,51.512474,7.467798,263,Villa,Exklusive Villa in gehobener Wohnlage.,"Diese Villa kombiniert moderne Architektur mit klassischer Eleganz. Großzügige Räume, ein Pool und eine edle Küche bieten höchsten Wohnkomfort. Ideal für Familien, die Wert auf Stil und Komfort legen.",4.998.254.28 €,https://images.unsplash.com/photo-1592181051148-dc7cf0dc51f6
263,Leon Bauer,Baden-Württemberg,Freiburg,Augustinerplatz,79098,48.000889,7.840523,264,Haus,Modernes Haus in einem aufstrebenden Wohngebiet.,Ein Haus mit viel Potenzial: Die geräumigen Zimmer bieten vielfältige Nutzungsmöglichkeiten. Der Garten ist perfekt für entspannte Nachmittage. Einkaufsmöglichkeiten und Ärzte sind in wenigen Minuten erreichbar.,521.046.46 €,https://images.unsplash.com/photo-1597597922952-3ad4d096b5f2
265,Noah Schröder,Niedersachsen,Oldenburg,Rathausplatz,26122,53.140742,8.214433,266,Haus,Modernes Haus in einem aufstrebenden Wohngebiet.,Dieses Haus vereint klassischen Charme mit modernem Komfort. Die hochwertige Ausstattung und die großen Fenster sorgen für ein helles und freundliches Wohnambiente. In der Nachbarschaft befinden sich Spielplätze und Parks.,338.690.67 €,https://images.unsplash.com/photo-1597597922952-3ad4d096b5f2
270,Paul Wolf,Berlin,Berlin,Alexanderplatz,10178,52.516727,13.402421,271,Wohnung,Modernes Apartment im zentralen Geschäftsviertel.,Diese Wohnung bietet modernen Wohnkomfort in zentraler Lage. Die offene Raumgestaltung schafft ein großzügiges Raumgefühl. Die großen Fenster sorgen für viel Licht. Ideal für Singles oder Paare. Einkaufsmöglichkeiten und öffentliche Verkehrsmittel befinden sich in unmittelbarer Nähe.,405.988.18 €,https://images.unsplash.com/photo-1575086194456-debcdf9d8eb7
271,Lea Zimmermann,Rheinland-Pfalz,Mainz,Ludwigsstraße,55116,49.995574,8.247667,272,Villa,Großzügige Villa mit weitläufigem Garten.,Diese Villa bietet exklusives Wohnen in einer der besten Lagen der Stadt. Mit ihrer weitläufigen Terrasse und dem gepflegten Garten ist sie perfekt für anspruchsvolle Familien. Hochwertige Materialien und elegante Details prägen das Interieur.,1.473.235.49 €,https://images.unsplash.com/photo-1613977257366-130f53a0161a
274,Hannah Schneider,Bayern,Augsburg,Fuggerstraße,86150,48.374524,10.898313,275,Haus,Charmantes Einfamilienhaus in einer ruhigen Straße.,"Dieses Haus überzeugt durch seine großzügige Raumaufteilung und den gepflegten Garten. Ideal für Familien, die ein ruhiges Umfeld suchen. Die moderne Küche und das helle Wohnzimmer laden zum Verweilen ein. In der Nähe befinden sich Schulen und Kindergärten.",941.078.84 €,https://images.unsplash.com/photo-1597597922952-3ad4d096b5f2
275,Sophia Neumann,Berlin,Berlin,Kurfürstendamm,10719,52.515365,13.402037,276,Wohnung,Renovierte Wohnung in einer ruhigen Wohngegend.,"Erleben Sie urbanes Wohnen in dieser stilvollen Wohnung. Die moderne Küche ist perfekt für Hobbyköche. Die Wohnung verfügt über einen kleinen Balkon, der zum Entspannen einlädt. In der Nähe befinden sich zahlreiche Cafés und Restaurants.",260.779.59 €,https://images.unsplash.com/photo-1575086194456-debcdf9d8eb7
278,Ben Schwarz,Mecklenburg-Vorpommern,Rostock,Am Brink,18055,54.090923,12.101652,279,Villa,Elegante Villa in einem ruhigen Vorort.,Diese Villa bietet exklusives Wohnen in einer der besten Lagen der Stadt. Mit ihrer weitläufigen Terrasse und dem gepflegten Garten ist sie perfekt für anspruchsvolle Familien. Hochwertige Materialien und elegante Details prägen das Interieur.,4.819.670.84 €,https://images.unsplash.com/photo-1592181051148-dc7cf0dc51f6
279,Lina Richter,Schleswig-Holstein,Kiel,Rathausstraße,24103,54.319813,10.124792,280,Villa,Großzügige Villa mit weitläufigem Garten.,"Eine Villa der Extraklasse: Großzügige Räume, hohe Decken und eine luxuriöse Ausstattung machen dieses Anwesen einzigartig. Der weitläufige Garten lädt zum Entspannen ein. Die Innenstadt ist in wenigen Minuten erreichbar.",2.556.162.14 €,https://images.unsplash.com/photo-1613977257366-130f53a0161a
285,Ben Wagner,Bremen,Bremen,Ostertorsteinweg,28203,53.082046,8.800272,286,Haus,Charmantes Einfamilienhaus in einer ruhigen Straße.,Dieses Haus vereint klassischen Charme mit modernem Komfort. Die hochwertige Ausstattung und die großen Fenster sorgen für ein helles und freundliches Wohnambiente. In der Nachbarschaft befinden sich Spielplätze und Parks.,718.972.54 €,https://images.unsplash.com/photo-1597597922952-3ad4d096b5f2
290,Felix Meyer,Nordrhein-Westfalen,Düsseldorf,Königsallee,40212,51.229745,6.772313,291,Villa,Elegante Villa in einem ruhigen Vorort.,"Diese Villa kombiniert moderne Architektur mit klassischer Eleganz. Großzügige Räume, ein Pool und eine edle Küche bieten höchsten Wohnkomfort. Ideal für Familien, die Wert auf Stil und Komfort legen.",3.871.992.40 €,https://images.unsplash.com/photo-1592181051148-dc7cf0dc51f6
295,Hannah Hartmann,Nordrhein-Westfalen,Düsseldorf,Schadowstraße,40212,51.224071,6.778376,296,Haus,Modernes Haus in einem aufstrebenden Wohngebiet.,Ein Haus mit viel Potenzial: Die geräumigen Zimmer bieten vielfältige Nutzungsmöglichkeiten. Der Garten ist perfekt für entspannte Nachmittage. Einkaufsmöglichkeiten und Ärzte sind in wenigen Minuten erreichbar.,575.547.95 €,https://images.unsplash.com/photo-1600585154340-be6161a56a0c
298,Paul Koch,Bremen,Bremen,Schlachte,28195,53.078068,8.800115,299,Villa,Elegante Villa in einem ruhigen Vorort.,"Eine Villa der Extraklasse: Großzügige Räume, hohe Decken und eine luxuriöse Ausstattung machen dieses Anwesen einzigartig. Der weitläufige Garten lädt zum Entspannen ein. Die Innenstadt ist in wenigen Minuten erreichbar.",4.094.885.81 €,https://images.unsplash.com/photo-1592181051148-dc7cf0dc51f6
302,Sophia Schmidt,Schleswig-Holstein,Kiel,Holstenstraße,24103,54.324419,10.121398,303,Villa,Großzügige Villa mit weitläufigem Garten.,"Diese Villa kombiniert moderne Architektur mit klassischer Eleganz. Großzügige Räume, ein Pool und eine edle Küche bieten höchsten Wohnkomfort. Ideal für Familien, die Wert auf Stil und Komfort legen.",4.759.950.18 €,https://images.unsplash.com/photo-1592181051148-dc7cf0dc51f6
306,Julia Wagner,Brandenburg,Potsdam,Breite Straße,14467,52.389513,13.068791,307,Haus,Gemütliches Haus in einer grünen Umgebung.,Ein Haus mit viel Potenzial: Die geräumigen Zimmer bieten vielfältige Nutzungsmöglichkeiten. Der Garten ist perfekt für entspannte Nachmittage. Einkaufsmöglichkeiten und Ärzte sind in wenigen Minuten erreichbar.,562.199.83 €,https://images.unsplash.com/photo-1600585155031-34d0b7b91b77
311,Hannah Wolf,Nordrhein-Westfalen,Dortmund,Hansastraße,44137,51.509221,7.469152,312,Haus,Charmantes Einfamilienhaus in einer ruhigen Straße.,"Dieses Haus überzeugt durch seine großzügige Raumaufteilung und den gepflegten Garten. Ideal für Familien, die ein ruhiges Umfeld suchen. Die moderne Küche und das helle Wohnzimmer laden zum Verweilen ein. In der Nähe befinden sich Schulen und Kindergärten.",831.597.43 €,https://images.unsplash.com/photo-1597597922952-3ad4d096b5f2
314,Luis Neumann,Nordrhein-Westfalen,Dortmund,Brückstraße,44135,51.513162,7.466086,315,Haus,Einladendes Haus in einem familienfreundlichen Viertel.,Dieses Haus vereint klassischen Charme mit modernem Komfort. Die hochwertige Ausstattung und die großen Fenster sorgen für ein helles und freundliches Wohnambiente. In der Nachbarschaft befinden sich Spielplätze und Parks.,598.302.81 €,https://images.unsplash.com/photo-1600585155031-34d0b7b91b77
321,Emma Koch,Nordrhein-Westfalen,Düsseldorf,Schadowstraße,40212,51.224855,6.774093,322,Haus,Charmantes Einfamilienhaus in einer ruhigen Straße.,"Dieses Haus überzeugt durch seine großzügige Raumaufteilung und den gepflegten Garten. Ideal für Familien, die ein ruhiges Umfeld suchen. Die moderne Küche und das helle Wohnzimmer laden zum Verweilen ein. In der Nähe befinden sich Schulen und Kindergärten.",868.387.84 €,https://images.unsplash.com/photo-1600585154340-be6161a56a0c
323,Ben Neumann,Berlin,Berlin,Alexanderplatz,10178,52.52265,13.405347,324,Wohnung,Gemütliche Wohnung im Herzen der Stadt.,Diese Wohnung bietet modernen Wohnkomfort in zentraler Lage. Die offene Raumgestaltung schafft ein großzügiges Raumgefühl. Die großen Fenster sorgen für viel Licht. Ideal für Singles oder Paare. Einkaufsmöglichkeiten und öffentliche Verkehrsmittel befinden sich in unmittelbarer Nähe.,468.950.14 €,https://images.unsplash.com/photo-1593088411905-9b7a2d7e6f3e
325,Emma Becker,Nordrhein-Westfalen,Essen,Kettwiger Straße,45127,51.450858,7.00725,326,Haus,Einladendes Haus in einem familienfreundlichen Viertel.,"Dieses Haus überzeugt durch seine großzügige Raumaufteilung und den gepflegten Garten. Ideal für Familien, die ein ruhiges Umfeld suchen. Die moderne Küche und das helle Wohnzimmer laden zum Verweilen ein. In der Nähe befinden sich Schulen und Kindergärten.",430.759.64 €,https://images.unsplash.com/photo-1597597922952-3ad4d096b5f2
328,Lina Müller,Nordrhein-Westfalen,Dortmund,Brückstraße,44135,51.514216,7.466793,329,Haus,Gemütliches Haus in einer grünen Umgebung.,Ein Haus mit viel Potenzial: Die geräumigen Zimmer bieten vielfältige Nutzungsmöglichkeiten. Der Garten ist perfekt für entspannte Nachmittage. Einkaufsmöglichkeiten und Ärzte sind in wenigen Minuten erreichbar.,433.326.63 €,https://images.unsplash.com/photo-1600585154340-be6161a56a0c
334,Jonas Koch,Nordrhein-Westfalen,Düsseldorf,Königsallee,40212,51.224307,6.772364,335,Haus,Gemütliches Haus in einer grünen Umgebung.,Dieses Haus vereint klassischen Charme mit modernem Komfort. Die hochwertige Ausstattung und die großen Fenster sorgen für ein helles und freundliches Wohnambiente. In der Nachbarschaft befinden sich Spielplätze und Parks.,562.464.57 €,https://images.unsplash.com/photo-1600585154340-be6161a56a0c
335,Paul Zimmermann,Nordrhein-Westfalen,Dortmund,Brückstraße,44135,51.512554,7.466769,336,Haus,Charmantes Einfamilienhaus in einer ruhigen Straße.,"Dieses Haus überzeugt durch seine großzügige Raumaufteilung und den gepflegten Garten. Ideal für Familien, die ein ruhiges Umfeld suchen. Die moderne Küche und das helle Wohnzimmer laden zum Verweilen ein. In der Nähe befinden sich Schulen und Kindergärten.",995.079.29 €,https://images.unsplash.com/photo-1600585155031-34d0b7b91b77
337,Maximilian Müller,Baden-Württemberg,Karlsruhe,Marktplatz,76133,49.005298,8.402664,338,Haus,Gemütliches Haus in einer grünen Umgebung.,"Dieses Haus überzeugt durch seine großzügige Raumaufteilung und den gepflegten Garten. Ideal für Familien, die ein ruhiges Umfeld suchen. Die moderne Küche und das helle Wohnzimmer laden zum Verweilen ein. In der Nähe befinden sich Schulen und Kindergärten.",530.402.47 €,https://images.unsplash.com/photo-1600585154340-be6161a56a0c
339,Luis Richter,Rheinland-Pfalz,Koblenz,Rheinstraße,56068,50.360483,7.589856,340,Wohnung,Modernes Apartment im zentralen Geschäftsviertel.,"Erleben Sie urbanes Wohnen in dieser stilvollen Wohnung. Die moderne Küche ist perfekt für Hobbyköche. Die Wohnung verfügt über einen kleinen Balkon, der zum Entspannen einlädt. In der Nähe befinden sich zahlreiche Cafés und Restaurants.",362.356.93 €,https://images.unsplash.com/photo-1560180474-e8563fd75f98
343,Jonas Wolf,Rheinland-Pfalz,Mainz,Ludwigsstraße,55116,49.993802,8.250177,344,Haus,Modernes Haus in einem aufstrebenden Wohngebiet.,Ein Haus mit viel Potenzial: Die geräumigen Zimmer bieten vielfältige Nutzungsmöglichkeiten. Der Garten ist perfekt für entspannte Nachmittage. Einkaufsmöglichkeiten und Ärzte sind in wenigen Minuten erreichbar.,771.189.95 €,https://images.unsplash.com/photo-1600585155031-34d0b7b91b77
346,Maximilian Schmidt,Bayern,Nürnberg,Lorenzer Platz,90402,49.452046,11.079252,347,Villa,Großzügige Villa mit weitläufigem Garten.,"Diese Villa kombiniert moderne Architektur mit klassischer Eleganz. Großzügige Räume, ein Pool und eine edle Küche bieten höchsten Wohnkomfort. Ideal für Familien, die Wert auf Stil und Komfort legen.",1.734.931.05 €,https://images.unsplash.com/photo-1592181051148-dc7cf0dc51f6
349,Mia Fischer,Saarland,Saarbrücken,Bahnhofstraße,66111,49.235557,6.999269,350,Wohnung,Modernes Apartment im zentralen Geschäftsviertel.,"Erleben Sie urbanes Wohnen in dieser stilvollen Wohnung. Die moderne Küche ist perfekt für Hobbyköche. Die Wohnung verfügt über einen kleinen Balkon, der zum Entspannen einlädt. In der Nähe befinden sich zahlreiche Cafés und Restaurants.",431.432.44 €,https://images.unsplash.com/photo-1560180474-e8563fd75f98
351,Anna Schmidt,Baden-Württemberg,Karlsruhe,Ettlinger Tor,76133,49.002004,8.401792,352,Haus,Modernes Haus in einem aufstrebenden Wohngebiet.,"Dieses Haus überzeugt durch seine großzügige Raumaufteilung und den gepflegten Garten. Ideal für Familien, die ein ruhiges Umfeld suchen. Die moderne Küche und das helle Wohnzimmer laden zum Verweilen ein. In der Nähe befinden sich Schulen und Kindergärten.",900.710.49 €,https://images.unsplash.com/photo-1600585154340-be6161a56a0c
360,Maximilian Neumann,Nordrhein-Westfalen,Dortmund,Hansastraße,44137,51.517116,7.461138,361,Villa,Elegante Villa in einem ruhigen Vorort.,Diese Villa bietet exklusives Wohnen in einer der besten Lagen der Stadt. Mit ihrer weitläufigen Terrasse und dem gepflegten Garten ist sie perfekt für anspruchsvolle Familien. Hochwertige Materialien und elegante Details prägen das Interieur.,2.750.434.39 €,https://images.unsplash.com/photo-1613977257366-130f53a0161a
362,Elias Hartmann,Hamburg,Hamburg,Reeperbahn,20359,53.549442,9.995512,363,Wohnung,Renovierte Wohnung in einer ruhigen Wohngegend.,Diese Wohnung bietet modernen Wohnkomfort in zentraler Lage. Die offene Raumgestaltung schafft ein großzügiges Raumgefühl. Die großen Fenster sorgen für viel Licht. Ideal für Singles oder Paare. Einkaufsmöglichkeiten und öffentliche Verkehrsmittel befinden sich in unmittelbarer Nähe.,497.107.59 €,https://images.unsplash.com/photo-1593088411905-9b7a2d7e6f3e
370,Finn Koch,Niedersachsen,Osnabrück,Große Straße,49074,52.27687,8.042669,371,Villa,Exklusive Villa in gehobener Wohnlage.,"Diese Villa kombiniert moderne Architektur mit klassischer Eleganz. Großzügige Räume, ein Pool und eine edle Küche bieten höchsten Wohnkomfort. Ideal für Familien, die Wert auf Stil und Komfort legen.",4.179.378.55 €,https://images.unsplash.com/photo-1613977257366-130f53a0161a
374,Paul Wolf,Niedersachsen,Hannover,Georgstraße,30159,52.375925,9.727723,375,Villa,Elegante Villa in einem ruhigen Vorort.,"Eine Villa der Extraklasse: Großzügige Räume, hohe Decken und eine luxuriöse Ausstattung machen dieses Anwesen einzigartig. Der weitläufige Garten lädt zum Entspannen ein. Die Innenstadt ist in wenigen Minuten erreichbar.",2.532.100.92 €,https://images.unsplash.com/photo-1592181051148-dc7cf0dc51f6
376,Lina Weber,Rheinland-Pfalz,Mainz,Große Bleiche,55116,49.991506,8.250924,377,Haus,Einladendes Haus in einem familienfreundlichen Viertel.,"Dieses Haus überzeugt durch seine großzügige Raumaufteilung und den gepflegten Garten. Ideal für Familien, die ein ruhiges Umfeld suchen. Die moderne Küche und das helle Wohnzimmer laden zum Verweilen ein. In der Nähe befinden sich Schulen und Kindergärten.",348.205.35 €,https://images.unsplash.com/photo-1600585155031-34d0b7b91b77
377,Hannah Becker,Niedersachsen,Braunschweig,Dammstraße,38100,52.268811,10.5235,378,Haus,Einladendes Haus in einem familienfreundlichen Viertel.,"Dieses Haus überzeugt durch seine großzügige Raumaufteilung und den gepflegten Garten. Ideal für Familien, die ein ruhiges Umfeld suchen. Die moderne Küche und das helle Wohnzimmer laden zum Verweilen ein. In der Nähe befinden sich Schulen und Kindergärten.",434.226.56 €,https://images.unsplash.com/photo-1600585155031-34d0b7b91b77
381,Paul Fischer,Nordrhein-Westfalen,Dortmund,Brückstraße,44135,51.514119,7.470073,382,Villa,Luxuriöse Villa mit beeindruckendem Blick.,Diese Villa bietet exklusives Wohnen in einer der besten Lagen der Stadt. Mit ihrer weitläufigen Terrasse und dem gepflegten Garten ist sie perfekt für anspruchsvolle Familien. Hochwertige Materialien und elegante Details prägen das Interieur.,1.165.145.73 €,https://images.unsplash.com/photo-1592181051148-dc7cf0dc51f6
384,Paul Neumann,Hamburg,Hamburg,Reeperbahn,20359,53.552682,9.996404,385,Wohnung,Renovierte Wohnung in einer ruhigen Wohngegend.,Diese renovierte Wohnung liegt in einem ruhigen Wohnviertel und besticht durch ihren klassischen Schnitt. Ein großzügiger Wohnbereich und ein geräumiges Schlafzimmer bieten viel Platz. Schulen und Parks sind bequem zu Fuß erreichbar.,334.266.69 €,https://images.unsplash.com/photo-1575086194456-debcdf9d8eb7
387,Paul Becker,Rheinland-Pfalz,Koblenz,Rheinstraße,56068,50.353865,7.590345,388,Wohnung,Modernes Apartment im zentralen Geschäftsviertel.,Diese Wohnung bietet modernen Wohnkomfort in zentraler Lage. Die offene Raumgestaltung schafft ein großzügiges Raumgefühl. Die großen Fenster sorgen für viel Licht. Ideal für Singles oder Paare. Einkaufsmöglichkeiten und öffentliche Verkehrsmittel befinden sich in unmittelbarer Nähe.,263.150.23 €,https://images.unsplash.com/photo-1575086194456-debcdf9d8eb7
392,Marie Schwarz,Berlin,Berlin,Kurfürstendamm,10719,52.515208,13.409187,393,Wohnung,Modernes Apartment im zentralen Geschäftsviertel.,Diese renovierte Wohnung liegt in einem ruhigen Wohnviertel und besticht durch ihren klassischen Schnitt. Ein großzügiger Wohnbereich und ein geräumiges Schlafzimmer bieten viel Platz. Schulen und Parks sind bequem zu Fuß erreichbar.,119.106.47 €,https://images.unsplash.com/photo-1575086194456-debcdf9d8eb7
393,Felix Becker,Rheinland-Pfalz,Mainz,Große Bleiche,55116,49.992943,8.245504,394,Villa,Luxuriöse Villa mit beeindruckendem Blick.,"Diese Villa kombiniert moderne Architektur mit klassischer Eleganz. Großzügige Räume, ein Pool und eine edle Küche bieten höchsten Wohnkomfort. Ideal für Familien, die Wert auf Stil und Komfort legen.",4.010.010.85 €,https://images.unsplash.com/photo-1613977257366-130f53a0161a
398,Mia Becker,Sachsen-Anhalt,Magdeburg,Ernst-Reuter-Allee,39104,52.124351,11.625114,399,Haus,Modernes Haus in einem aufstrebenden Wohngebiet.,Dieses Haus vereint klassischen Charme mit modernem Komfort. Die hochwertige Ausstattung und die großen Fenster sorgen für ein helles und freundliches Wohnambiente. In der Nachbarschaft befinden sich Spielplätze und Parks.,391.357.66 €,https://images.unsplash.com/photo-1600585155031-34d0b7b91b77
403,Ben Krüger,Brandenburg,Potsdam,Brandenburger Straße,14467,52.386054,13.066174,404,Haus,Einladendes Haus in einem familienfreundlichen Viertel.,Dieses Haus vereint klassischen Charme mit modernem Komfort. Die hochwertige Ausstattung und die großen Fenster sorgen für ein helles und freundliches Wohnambiente. In der Nachbarschaft befinden sich Spielplätze und Parks.,896.544.47 €,https://images.unsplash.com/photo-1600585154340-be6161a56a0c
408,Emma Richter,Hessen,Kassel,Königsplatz,34117,51.311984,9.481495,409,Villa,Exklusive Villa in gehobener Wohnlage.,"Eine Villa der Extraklasse: Großzügige Räume, hohe Decken und eine luxuriöse Ausstattung machen dieses Anwesen einzigartig. Der weitläufige Garten lädt zum Entspannen ein. Die Innenstadt ist in wenigen Minuten erreichbar.",1.115.342.43 €,https://images.unsplash.com/photo-1592181051148-dc7cf0dc51f6
411,Julia Schmidt,Saarland,Saarbrücken,Rathausplatz,66111,49.244005,6.994745,412,Villa,Luxuriöse Villa mit beeindruckendem Blick.,"Eine Villa der Extraklasse: Großzügige Räume, hohe Decken und eine luxuriöse Ausstattung machen dieses Anwesen einzigartig. Der weitläufige Garten lädt zum Entspannen ein. Die Innenstadt ist in wenigen Minuten erreichbar.",2.888.106.02 €,https://images.unsplash.com/photo-1592181051148-dc7cf0dc51f6
413,Luis Müller,Baden-Württemberg,Karlsruhe,Marktplatz,76133,49.002908,8.405553,414,Villa,Elegante Villa in einem ruhigen Vorort.,"Eine Villa der Extraklasse: Großzügige Räume, hohe Decken und eine luxuriöse Ausstattung machen dieses Anwesen einzigartig. Der weitläufige Garten lädt zum Entspannen ein. Die Innenstadt ist in wenigen Minuten erreichbar.",1.829.182.59 €,https://images.unsplash.com/photo-1592181051148-dc7cf0dc51f6
417,Hannah Hartmann,Berlin,Berlin,Kurfürstendamm,10719,52.524498,13.409702,418,Wohnung,Stilvolles Studio in der belebten Innenstadt.,"Erleben Sie urbanes Wohnen in dieser stilvollen Wohnung. Die moderne Küche ist perfekt für Hobbyköche. Die Wohnung verfügt über einen kleinen Balkon, der zum Entspannen einlädt. In der Nähe befinden sich zahlreiche Cafés und Restaurants.",248.035.86 €,https://images.unsplash.com/photo-1560180474-e8563fd75f98
418,Lukas Schröder,Bremen,Bremen,Schlachte,28195,53.078982,8.800142,419,Haus,Einladendes Haus in einem familienfreundlichen Viertel.,"Dieses Haus überzeugt durch seine großzügige Raumaufteilung und den gepflegten Garten. Ideal für Familien, die ein ruhiges Umfeld suchen. Die moderne Küche und das helle Wohnzimmer laden zum Verweilen ein. In der Nähe befinden sich Schulen und Kindergärten.",976.918.34 €,https://images.unsplash.com/photo-1600585155031-34d0b7b91b77
419,Anna Richter,Bremen,Bremen,Am Wall,28195,53.077286,8.806225,420,Villa,Großzügige Villa mit weitläufigem Garten.,"Diese Villa kombiniert moderne Architektur mit klassischer Eleganz. Großzügige Räume, ein Pool und eine edle Küche bieten höchsten Wohnkomfort. Ideal für Familien, die Wert auf Stil und Komfort legen.",2.689.139.74 €,https://images.unsplash.com/photo-1613977257366-130f53a0161a
421,Finn Krüger,Hamburg,Hamburg,Mönckebergstraße,20095,53.546374,9.990198,422,Wohnung,Stilvolles Studio in der belebten Innenstadt.,Diese Wohnung bietet modernen Wohnkomfort in zentraler Lage. Die offene Raumgestaltung schafft ein großzügiges Raumgefühl. Die großen Fenster sorgen für viel Licht. Ideal für Singles oder Paare. Einkaufsmöglichkeiten und öffentliche Verkehrsmittel befinden sich in unmittelbarer Nähe.,316.475.08 €,https://images.unsplash.com/photo-1575086194456-debcdf9d8eb7
423,Sophia Wolf,Rheinland-Pfalz,Koblenz,Löhrstraße,56068,50.354923,7.589145,424,Haus,Modernes Haus in einem aufstrebenden Wohngebiet.,Ein Haus mit viel Potenzial: Die geräumigen Zimmer bieten vielfältige Nutzungsmöglichkeiten. Der Garten ist perfekt für entspannte Nachmittage. Einkaufsmöglichkeiten und Ärzte sind in wenigen Minuten erreichbar.,444.640.13 €,https://images.unsplash.com/photo-1600585155031-34d0b7b91b77
425,Anna Neumann,Brandenburg,Potsdam,Lindenstraße,14467,52.387471,13.067416,426,Villa,Großzügige Villa mit weitläufigem Garten.,Diese Villa bietet exklusives Wohnen in einer der besten Lagen der Stadt. Mit ihrer weitläufigen Terrasse und dem gepflegten Garten ist sie perfekt für anspruchsvolle Familien. Hochwertige Materialien und elegante Details prägen das Interieur.,3.594.194.47 €,https://images.unsplash.com/photo-1592181051148-dc7cf0dc51f6
428,Anna Hartmann,Niedersachsen,Braunschweig,Dammstraße,38100,52.272282,10.528931,429,Villa,Großzügige Villa mit weitläufigem Garten.,"Diese Villa kombiniert moderne Architektur mit klassischer Eleganz. Großzügige Räume, ein Pool und eine edle Küche bieten höchsten Wohnkomfort. Ideal für Familien, die Wert auf Stil und Komfort legen.",1.509.374.92 €,https://images.unsplash.com/photo-1592181051148-dc7cf0dc51f6
430,Luis Zimmermann,Schleswig-Holstein,Kiel,Rathausstraße,24103,54.325566,10.120465,431,Villa,Elegante Villa in einem ruhigen Vorort.,Diese Villa bietet exklusives Wohnen in einer der besten Lagen der Stadt. Mit ihrer weitläufigen Terrasse und dem gepflegten Garten ist sie perfekt für anspruchsvolle Familien. Hochwertige Materialien und elegante Details prägen das Interieur.,2.366.464.54 €,https://images.unsplash.com/photo-1613977257366-130f53a0161a
431,Julia Schneider,Rheinland-Pfalz,Mainz,Große Bleiche,55116,49.996893,8.248667,432,Villa,Luxuriöse Villa mit beeindruckendem Blick.,Diese Villa bietet exklusives Wohnen in einer der besten Lagen der Stadt. Mit ihrer weitläufigen Terrasse und dem gepflegten Garten ist sie perfekt für anspruchsvolle Familien. Hochwertige Materialien und elegante Details prägen das Interieur.,1.937.925.98 €,https://images.unsplash.com/photo-1592181051148-dc7cf0dc51f6
434,Anna Koch,Bremen,Bremen,Ostertorsteinweg,28203,53.076142,8.798194,435,Villa,Luxuriöse Villa mit beeindruckendem Blick.,Diese Villa bietet exklusives Wohnen in einer der besten Lagen der Stadt. Mit ihrer weitläufigen Terrasse und dem gepflegten Garten ist sie perfekt für anspruchsvolle Familien. Hochwertige Materialien und elegante Details prägen das Interieur.,2.085.539.90 €,https://images.unsplash.com/photo-1592181051148-dc7cf0dc51f6
436,Lea Becker,Bremen,Bremen,Schlachte,28195,53.075004,8.799752,437,Villa,Luxuriöse Villa mit beeindruckendem Blick.,"Diese Villa kombiniert moderne Architektur mit klassischer Eleganz. Großzügige Räume, ein Pool und eine edle Küche bieten höchsten Wohnkomfort. Ideal für Familien, die Wert auf Stil und Komfort legen.",4.128.082.60 €,https://images.unsplash.com/photo-1613977257366-130f53a0161a
439,Anna Bauer,Nordrhein-Westfalen,Düsseldorf,Schadowstraße,40212,51.225328,6.776321,440,Villa,Elegante Villa in einem ruhigen Vorort.,"Diese Villa kombiniert moderne Architektur mit klassischer Eleganz. Großzügige Räume, ein Pool und eine edle Küche bieten höchsten Wohnkomfort. Ideal für Familien, die Wert auf Stil und Komfort legen.",2.048.500.82 €,https://images.unsplash.com/photo-1592181051148-dc7cf0dc51f6
442,Maximilian Müller,Nordrhein-Westfalen,Dortmund,Hansastraße,44137,51.513358,7.462282,443,Villa,Exklusive Villa in gehobener Wohnlage.,Diese Villa bietet exklusives Wohnen in einer der besten Lagen der Stadt. Mit ihrer weitläufigen Terrasse und dem gepflegten Garten ist sie perfekt für anspruchsvolle Familien. Hochwertige Materialien und elegante Details prägen das Interieur.,2.656.837.29 €,https://images.unsplash.com/photo-1592181051148-dc7cf0dc51f6
444,Marie Koch,Niedersachsen,Osnabrück,Neumarkt,49074,52.282211,8.045295,445,Haus,Modernes Haus in einem aufstrebenden Wohngebiet.,Ein Haus mit viel Potenzial: Die geräumigen Zimmer bieten vielfältige Nutzungsmöglichkeiten. Der Garten ist perfekt für entspannte Nachmittage. Einkaufsmöglichkeiten und Ärzte sind in wenigen Minuten erreichbar.,345.987.70 €,https://images.unsplash.com/photo-1597597922952-3ad4d096b5f2
446,Leon Müller,Niedersachsen,Oldenburg,Lange Straße,26122,53.138697,8.218745,447,Villa,Exklusive Villa in gehobener Wohnlage.,"Diese Villa kombiniert moderne Architektur mit klassischer Eleganz. Großzügige Räume, ein Pool und eine edle Küche bieten höchsten Wohnkomfort. Ideal für Familien, die Wert auf Stil und Komfort legen.",3.943.179.43 €,https://images.unsplash.com/photo-1592181051148-dc7cf0dc51f6
454,Noah Müller,Bremen,Bremen,Ostertorsteinweg,28203,53.074551,8.799083,455,Villa,Großzügige Villa mit weitläufigem Garten.,Diese Villa bietet exklusives Wohnen in einer der besten Lagen der Stadt. Mit ihrer weitläufigen Terrasse und dem gepflegten Garten ist sie perfekt für anspruchsvolle Familien. Hochwertige Materialien und elegante Details prägen das Interieur.,1.095.204.14 €,https://images.unsplash.com/photo-1592181051148-dc7cf0dc51f6
459,Julia Klein,Schleswig-Holstein,Kiel,Rathausstraße,24103,54.325465,10.121296,460,Villa,Luxuriöse Villa mit beeindruckendem Blick.,Diese Villa bietet exklusives Wohnen in einer der besten Lagen der Stadt. Mit ihrer weitläufigen Terrasse und dem gepflegten Garten ist sie perfekt für anspruchsvolle Familien. Hochwertige Materialien und elegante Details prägen das Interieur.,3.684.814.95 €,https://images.unsplash.com/photo-1592181051148-dc7cf0dc51f6
460,Mia Zimmermann,Schleswig-Holstein,Kiel,Exerzierplatz,24103,54.325397,10.124566,461,Haus,Gemütliches Haus in einer grünen Umgebung.,Dieses Haus vereint klassischen Charme mit modernem Komfort. Die hochwertige Ausstattung und die großen Fenster sorgen für ein helles und freundliches Wohnambiente. In der Nachbarschaft befinden sich Spielplätze und Parks.,601.998.70 €,https://images.unsplash.com/photo-1597597922952-3ad4d096b5f2
464,Emma Neumann,Thüringen,Erfurt,Anger,99084,50.981376,11.031023,465,Haus,Modernes Haus in einem aufstrebenden Wohngebiet.,"Dieses Haus überzeugt durch seine großzügige Raumaufteilung und den gepflegten Garten. Ideal für Familien, die ein ruhiges Umfeld suchen. Die moderne Küche und das helle Wohnzimmer laden zum Verweilen ein. In der Nähe befinden sich Schulen und Kindergärten.",989.410.38 €,https://images.unsplash.com/photo-1600585155031-34d0b7b91b77
469,Luis Fischer,Niedersachsen,Oldenburg,Schlossplatz,26122,53.143695,8.21583,470,Villa,Luxuriöse Villa mit beeindruckendem Blick.,"Eine Villa der Extraklasse: Großzügige Räume, hohe Decken und eine luxuriöse Ausstattung machen dieses Anwesen einzigartig. Der weitläufige Garten lädt zum Entspannen ein. Die Innenstadt ist in wenigen Minuten erreichbar.",4.329.453.83 €,https://images.unsplash.com/photo-1592181051148-dc7cf0dc51f6
472,Paul Richter,Hessen,Darmstadt,Marktplatz,64283,49.871185,8.652595,473,Haus,Gemütliches Haus in einer grünen Umgebung.,Dieses Haus vereint klassischen Charme mit modernem Komfort. Die hochwertige Ausstattung und die großen Fenster sorgen für ein helles und freundliches Wohnambiente. In der Nachbarschaft befinden sich Spielplätze und Parks.,758.175.61 €,https://images.unsplash.com/photo-1600585155031-34d0b7b91b77
477,Marie Hartmann,Baden-Württemberg,Freiburg,Kaiser-Joseph-Straße,79098,47.999604,7.837617,478,Haus,Modernes Haus in einem aufstrebenden Wohngebiet.,Dieses Haus vereint klassischen Charme mit modernem Komfort. Die hochwertige Ausstattung und die großen Fenster sorgen für ein helles und freundliches Wohnambiente. In der Nachbarschaft befinden sich Spielplätze und Parks.,528.171.38 €,https://images.unsplash.com/photo-1600585155031-34d0b7b91b77
478,Julia Koch,Mecklenburg-Vorpommern,Rostock,Am Brink,18055,54.089782,12.100207,479,Villa,Luxuriöse Villa mit beeindruckendem Blick.,"Diese Villa kombiniert moderne Architektur mit klassischer Eleganz. Großzügige Räume, ein Pool und eine edle Küche bieten höchsten Wohnkomfort. Ideal für Familien, die Wert auf Stil und Komfort legen.",4.250.013.78 €,https://images.unsplash.com/photo-1592181051148-dc7cf0dc51f6
479,Marie Fischer,Nordrhein-Westfalen,Düsseldorf,Königsallee,40212,51.23144,6.775073,480,Villa,Exklusive Villa in gehobener Wohnlage.,"Eine Villa der Extraklasse: Großzügige Räume, hohe Decken und eine luxuriöse Ausstattung machen dieses Anwesen einzigartig. Der weitläufige Garten lädt zum Entspannen ein. Die Innenstadt ist in wenigen Minuten erreichbar.",1.355.267.71 €,https://images.unsplash.com/photo-1592181051148-dc7cf0dc51f6
484,Jonas Krüger,Hessen,Darmstadt,Marktplatz,64283,49.87294,8.651264,485,Haus,Einladendes Haus in einem familienfreundlichen Viertel.,"Dieses Haus überzeugt durch seine großzügige Raumaufteilung und den gepflegten Garten. Ideal für Familien, die ein ruhiges Umfeld suchen. Die moderne Küche und das helle Wohnzimmer laden zum Verweilen ein. In der Nähe befinden sich Schulen und Kindergärten.",338.147.26 €,https://images.unsplash.com/photo-1600585154340-be6161a56a0c
486,Lea Koch,Baden-Württemberg,Freiburg,Kaiser-Joseph-Straße,79098,47.997962,7.840966,487,Haus,Gemütliches Haus in einer grünen Umgebung.,Dieses Haus vereint klassischen Charme mit modernem Komfort. Die hochwertige Ausstattung und die großen Fenster sorgen für ein helles und freundliches Wohnambiente. In der Nachbarschaft befinden sich Spielplätze und Parks.,463.212.08 €,https://images.unsplash.com/photo-1600585154340-be6161a56a0c
497,Julia Becker,Hessen,Kassel,Friedrichsplatz,34117,51.313529,9.481345,498,Villa,Exklusive Villa in gehobener Wohnlage.,Diese Villa bietet exklusives Wohnen in einer der besten Lagen der Stadt. Mit ihrer weitläufigen Terrasse und dem gepflegten Garten ist sie perfekt für anspruchsvolle Familien. Hochwertige Materialien und elegante Details prägen das Interieur.,3.804.795.93 €,https://images.unsplash.com/photo-1592181051148-dc7cf0dc51f6
500,Paul Schröder,Sachsen-Anhalt,Magdeburg,Breiter Weg,39104,52.118509,11.626351,501,Haus,Charmantes Einfamilienhaus in einer ruhigen Straße.,Ein Haus mit viel Potenzial: Die geräumigen Zimmer bieten vielfältige Nutzungsmöglichkeiten. Der Garten ist perfekt für entspannte Nachmittage. Einkaufsmöglichkeiten und Ärzte sind in wenigen Minuten erreichbar.,397.660.55 €,https://images.unsplash.com/photo-1600585155031-34d0b7b91b77
501,Hannah Hartmann,Sachsen-Anhalt,Magdeburg,Alter Markt,39104,52.121365,11.629621,502,Haus,Charmantes Einfamilienhaus in einer ruhigen Straße.,Ein Haus mit viel Potenzial: Die geräumigen Zimmer bieten vielfältige Nutzungsmöglichkeiten. Der Garten ist perfekt für entspannte Nachmittage. Einkaufsmöglichkeiten und Ärzte sind in wenigen Minuten erreichbar.,514.172.88 €,https://images.unsplash.com/photo-1600585154340-be6161a56a0c
503,Julia Bauer,Nordrhein-Westfalen,Köln,Schildergasse,50667,50.933287,6.964848,504,Wohnung,Modernes Apartment im zentralen Geschäftsviertel.,"Erleben Sie urbanes Wohnen in dieser stilvollen Wohnung. Die moderne Küche ist perfekt für Hobbyköche. Die Wohnung verfügt über einen kleinen Balkon, der zum Entspannen einlädt. In der Nähe befinden sich zahlreiche Cafés und Restaurants.",485.778.34 €,https://images.unsplash.com/photo-1575086194456-debcdf9d8eb7
513,Jonas Bauer,Niedersachsen,Osnabrück,Neumarkt,49074,52.279433,8.047466,514,Haus,Charmantes Einfamilienhaus in einer ruhigen Straße.,"Dieses Haus überzeugt durch seine großzügige Raumaufteilung und den gepflegten Garten. Ideal für Familien, die ein ruhiges Umfeld suchen. Die moderne Küche und das helle Wohnzimmer laden zum Verweilen ein. In der Nähe befinden sich Schulen und Kindergärten.",307.595.70 €,https://images.unsplash.com/photo-1597597922952-3ad4d096b5f2
515,Noah Wolf,Berlin,Berlin,Alexanderplatz,10178,52.515928,13.408845,516,Wohnung,Renovierte Wohnung in einer ruhigen Wohngegend.,"Erleben Sie urbanes Wohnen in dieser stilvollen Wohnung. Die moderne Küche ist perfekt für Hobbyköche. Die Wohnung verfügt über einen kleinen Balkon, der zum Entspannen einlädt. In der Nähe befinden sich zahlreiche Cafés und Restaurants.",475.252.91 €,https://images.unsplash.com/photo-1575086194456-debcdf9d8eb7
517,Noah Weber,Bremen,Bremen,Ostertorsteinweg,28203,53.079271,8.79799,518,Haus,Charmantes Einfamilienhaus in einer ruhigen Straße.,"Dieses Haus überzeugt durch seine großzügige Raumaufteilung und den gepflegten Garten. Ideal für Familien, die ein ruhiges Umfeld suchen. Die moderne Küche und das helle Wohnzimmer laden zum Verweilen ein. In der Nähe befinden sich Schulen und Kindergärten.",456.085.00 €,https://images.unsplash.com/photo-1600585155031-34d0b7b91b77
518,Elias Krüger,Rheinland-Pfalz,Mainz,Ludwigsstraße,55116,49.990636,8.250002,519,Villa,Großzügige Villa mit weitläufigem Garten.,"Eine Villa der Extraklasse: Großzügige Räume, hohe Decken und eine luxuriöse Ausstattung machen dieses Anwesen einzigartig. Der weitläufige Garten lädt zum Entspannen ein. Die Innenstadt ist in wenigen Minuten erreichbar.",1.395.215.52 €,https://images.unsplash.com/photo-1592181051148-dc7cf0dc51f6
523,Felix Wolf,Niedersachsen,Osnabrück,Große Straße,49074,52.27532,8.04656,524,Haus,Gemütliches Haus in einer grünen Umgebung.,"Dieses Haus überzeugt durch seine großzügige Raumaufteilung und den gepflegten Garten. Ideal für Familien, die ein ruhiges Umfeld suchen. Die moderne Küche und das helle Wohnzimmer laden zum Verweilen ein. In der Nähe befinden sich Schulen und Kindergärten.",315.021.70 €,https://images.unsplash.com/photo-1597597922952-3ad4d096b5f2
530,Julia Bauer,Rheinland-Pfalz,Koblenz,Rheinstraße,56068,50.352283,7.588708,531,Wohnung,Stilvolles Studio in der belebten Innenstadt.,Diese renovierte Wohnung liegt in einem ruhigen Wohnviertel und besticht durch ihren klassischen Schnitt. Ein großzügiger Wohnbereich und ein geräumiges Schlafzimmer bieten viel Platz. Schulen und Parks sind bequem zu Fuß erreichbar.,268.424.20 €,https://images.unsplash.com/photo-1560180474-e8563fd75f98
532,Finn Hartmann,Bayern,Augsburg,Fuggerstraße,86150,48.374239,10.902657,533,Villa,Großzügige Villa mit weitläufigem Garten.,Diese Villa bietet exklusives Wohnen in einer der besten Lagen der Stadt. Mit ihrer weitläufigen Terrasse und dem gepflegten Garten ist sie perfekt für anspruchsvolle Familien. Hochwertige Materialien und elegante Details prägen das Interieur.,3.981.857.72 €,https://images.unsplash.com/photo-1613977257366-130f53a0161a
533,Lea Zimmermann,Bremen,Bremen,Schlachte,28195,53.080565,8.800435,534,Villa,Luxuriöse Villa mit beeindruckendem Blick.,Diese Villa bietet exklusives Wohnen in einer der besten Lagen der Stadt. Mit ihrer weitläufigen Terrasse und dem gepflegten Garten ist sie perfekt für anspruchsvolle Familien. Hochwertige Materialien und elegante Details prägen das Interieur.,3.572.451.03 €,https://images.unsplash.com/photo-1592181051148-dc7cf0dc51f6
535,Jonas Schmitz,Mecklenburg-Vorpommern,Rostock,Am Brink,18055,54.092094,12.103335,536,Villa,Exklusive Villa in gehobener Wohnlage.,"Eine Villa der Extraklasse: Großzügige Räume, hohe Decken und eine luxuriöse Ausstattung machen dieses Anwesen einzigartig. Der weitläufige Garten lädt zum Entspannen ein. Die Innenstadt ist in wenigen Minuten erreichbar.",4.275.873.93 €,https://images.unsplash.com/photo-1592181051148-dc7cf0dc51f6
543,Hannah Bauer,Niedersachsen,Osnabrück,Neumarkt,49074,52.28278,8.047481,544,Haus,Gemütliches Haus in einer grünen Umgebung.,"Dieses Haus überzeugt durch seine großzügige Raumaufteilung und den gepflegten Garten. Ideal für Familien, die ein ruhiges Umfeld suchen. Die moderne Küche und das helle Wohnzimmer laden zum Verweilen ein. In der Nähe befinden sich Schulen und Kindergärten.",725.272.12 €,https://images.unsplash.com/photo-1597597922952-3ad4d096b5f2
545,Sophia Bauer,Mecklenburg-Vorpommern,Rostock,Am Brink,18055,54.095885,12.103549,546,Villa,Luxuriöse Villa mit beeindruckendem Blick.,"Diese Villa kombiniert moderne Architektur mit klassischer Eleganz. Großzügige Räume, ein Pool und eine edle Küche bieten höchsten Wohnkomfort. Ideal für Familien, die Wert auf Stil und Komfort legen.",3.472.053.77 €,https://images.unsplash.com/photo-1592181051148-dc7cf0dc51f6
547,Luis Wagner,Thüringen,Erfurt,Bahnhofstraße,99084,50.97452,11.029626,548,Wohnung,Stilvolles Studio in der belebten Innenstadt.,Diese renovierte Wohnung liegt in einem ruhigen Wohnviertel und besticht durch ihren klassischen Schnitt. Ein großzügiger Wohnbereich und ein geräumiges Schlafzimmer bieten viel Platz. Schulen und Parks sind bequem zu Fuß erreichbar.,266.334.37 €,https://images.unsplash.com/photo-1560180474-e8563fd75f98
551,Luis Weber,Saarland,Saarbrücken,Rathausplatz,66111,49.24367,6.99919,552,Villa,Großzügige Villa mit weitläufigem Garten.,"Eine Villa der Extraklasse: Großzügige Räume, hohe Decken und eine luxuriöse Ausstattung machen dieses Anwesen einzigartig. Der weitläufige Garten lädt zum Entspannen ein. Die Innenstadt ist in wenigen Minuten erreichbar.",4.974.207.62 €,https://images.unsplash.com/photo-1592181051148-dc7cf0dc51f6
554,Noah Wagner,Mecklenburg-Vorpommern,Rostock,Lange Straße,18055,54.096768,12.098177,555,Haus,Charmantes Einfamilienhaus in einer ruhigen Straße.,Dieses Haus vereint klassischen Charme mit modernem Komfort. Die hochwertige Ausstattung und die großen Fenster sorgen für ein helles und freundliches Wohnambiente. In der Nachbarschaft befinden sich Spielplätze und Parks.,534.430.46 €,https://images.unsplash.com/photo-1600585154340-be6161a56a0c
555,Lea Schwarz,Baden-Württemberg,Karlsruhe,Marktplatz,76133,49.003026,8.405926,556,Haus,Einladendes Haus in einem familienfreundlichen Viertel.,Dieses Haus vereint klassischen Charme mit modernem Komfort. Die hochwertige Ausstattung und die großen Fenster sorgen für ein helles und freundliches Wohnambiente. In der Nachbarschaft befinden sich Spielplätze und Parks.,501.774.34 €,https://images.unsplash.com/photo-1600585154340-be6161a56a0c
557,Marie Wagner,Bremen,Bremen,Schlachte,28195,53.076182,8.799514,558,Villa,Luxuriöse Villa mit beeindruckendem Blick.,Diese Villa bietet exklusives Wohnen in einer der besten Lagen der Stadt. Mit ihrer weitläufigen Terrasse und dem gepflegten Garten ist sie perfekt für anspruchsvolle Familien. Hochwertige Materialien und elegante Details prägen das Interieur.,2.050.708.86 €,https://images.unsplash.com/photo-1592181051148-dc7cf0dc51f6
558,Luis Meyer,Niedersachsen,Oldenburg,Lange Straße,26122,53.139963,8.216038,559,Villa,Exklusive Villa in gehobener Wohnlage.,Diese Villa bietet exklusives Wohnen in einer der besten Lagen der Stadt. Mit ihrer weitläufigen Terrasse und dem gepflegten Garten ist sie perfekt für anspruchsvolle Familien. Hochwertige Materialien und elegante Details prägen das Interieur.,4.107.836.76 €,https://images.unsplash.com/photo-1592181051148-dc7cf0dc51f6
559,Maximilian Weber,Bremen,Bremen,Ostertorsteinweg,28203,53.078624,8.798611,560,Haus,Einladendes Haus in einem familienfreundlichen Viertel.,Dieses Haus vereint klassischen Charme mit modernem Komfort. Die hochwertige Ausstattung und die großen Fenster sorgen für ein helles und freundliches Wohnambiente. In der Nachbarschaft befinden sich Spielplätze und Parks.,623.928.82 €,https://images.unsplash.com/photo-1597597922952-3ad4d096b5f2
560,Julia Weber,Thüringen,Erfurt,Domplatz,99084,50.978359,11.029409,561,Villa,Exklusive Villa in gehobener Wohnlage.,"Eine Villa der Extraklasse: Großzügige Räume, hohe Decken und eine luxuriöse Ausstattung machen dieses Anwesen einzigartig. Der weitläufige Garten lädt zum Entspannen ein. Die Innenstadt ist in wenigen Minuten erreichbar.",1.748.554.56 €,https://images.unsplash.com/photo-1613977257366-130f53a0161a
565,Leon Fischer,Hessen,Kassel,Rathausstraße,34117,51.313355,9.482693,566,Haus,Modernes Haus in einem aufstrebenden Wohngebiet.,Ein Haus mit viel Potenzial: Die geräumigen Zimmer bieten vielfältige Nutzungsmöglichkeiten. Der Garten ist perfekt für entspannte Nachmittage. Einkaufsmöglichkeiten und Ärzte sind in wenigen Minuten erreichbar.,942.009.13 €,https://images.unsplash.com/photo-1600585155031-34d0b7b91b77
567,Noah Weber,Sachsen-Anhalt,Magdeburg,Breiter Weg,39104,52.117849,11.631805,568,Villa,Exklusive Villa in gehobener Wohnlage.,"Eine Villa der Extraklasse: Großzügige Räume, hohe Decken und eine luxuriöse Ausstattung machen dieses Anwesen einzigartig. Der weitläufige Garten lädt zum Entspannen ein. Die Innenstadt ist in wenigen Minuten erreichbar.",3.207.824.03 €,https://images.unsplash.com/photo-1592181051148-dc7cf0dc51f6
573,Ben Müller,Nordrhein-Westfalen,Essen,Kettwiger Straße,45127,51.453791,7.010472,574,Villa,Elegante Villa in einem ruhigen Vorort.,Diese Villa bietet exklusives Wohnen in einer der besten Lagen der Stadt. Mit ihrer weitläufigen Terrasse und dem gepflegten Garten ist sie perfekt für anspruchsvolle Familien. Hochwertige Materialien und elegante Details prägen das Interieur.,2.642.423.33 €,https://images.unsplash.com/photo-1592181051148-dc7cf0dc51f6
576,Emma Bauer,Brandenburg,Potsdam,Brandenburger Straße,14467,52.39485,13.065079,577,Haus,Modernes Haus in einem aufstrebenden Wohngebiet.,Ein Haus mit viel Potenzial: Die geräumigen Zimmer bieten vielfältige Nutzungsmöglichkeiten. Der Garten ist perfekt für entspannte Nachmittage. Einkaufsmöglichkeiten und Ärzte sind in wenigen Minuten erreichbar.,675.988.18 €,https://images.unsplash.com/photo-1600585155031-34d0b7b91b77
584,Luis Wagner,Baden-Württemberg,Karlsruhe,Ettlinger Tor,76133,49.008128,8.400246,585,Villa,Exklusive Villa in gehobener Wohnlage.,"Diese Villa kombiniert moderne Architektur mit klassischer Eleganz. Großzügige Räume, ein Pool und eine edle Küche bieten höchsten Wohnkomfort. Ideal für Familien, die Wert auf Stil und Komfort legen.",3.570.116.24 €,https://images.unsplash.com/photo-1613977257366-130f53a0161a
585,Noah Hartmann,Berlin,Berlin,Alexanderplatz,10178,52.519363,13.405818,586,Wohnung,Modernes Apartment im zentralen Geschäftsviertel.,"Erleben Sie urbanes Wohnen in dieser stilvollen Wohnung. Die moderne Küche ist perfekt für Hobbyköche. Die Wohnung verfügt über einen kleinen Balkon, der zum Entspannen einlädt. In der Nähe befinden sich zahlreiche Cafés und Restaurants.",177.094.04 €,https://images.unsplash.com/photo-1575086194456-debcdf9d8eb7
588,Sophia Klein,Niedersachsen,Osnabrück,Johannisstraße,49074,52.277491,8.042402,589,Villa,Exklusive Villa in gehobener Wohnlage.,Diese Villa bietet exklusives Wohnen in einer der besten Lagen der Stadt. Mit ihrer weitläufigen Terrasse und dem gepflegten Garten ist sie perfekt für anspruchsvolle Familien. Hochwertige Materialien und elegante Details prägen das Interieur.,4.030.473.15 €,https://images.unsplash.com/photo-1592181051148-dc7cf0dc51f6
592,Emma Hartmann,Hessen,Wiesbaden,Taunusstraße,65183,50.086417,8.247845,593,Haus,Charmantes Einfamilienhaus in einer ruhigen Straße.,"Dieses Haus überzeugt durch seine großzügige Raumaufteilung und den gepflegten Garten. Ideal für Familien, die ein ruhiges Umfeld suchen. Die moderne Küche und das helle Wohnzimmer laden zum Verweilen ein. In der Nähe befinden sich Schulen und Kindergärten.",860.283.29 €,https://images.unsplash.com/photo-1597597922952-3ad4d096b5f2
593,Mia Schwarz,Baden-Württemberg,Karlsruhe,Marktplatz,76133,49.011691,8.408466,594,Villa,Elegante Villa in einem ruhigen Vorort.,"Eine Villa der Extraklasse: Großzügige Räume, hohe Decken und eine luxuriöse Ausstattung machen dieses Anwesen einzigartig. Der weitläufige Garten lädt zum Entspannen ein. Die Innenstadt ist in wenigen Minuten erreichbar.",4.266.945.00 €,https://images.unsplash.com/photo-1592181051148-dc7cf0dc51f6
596,Finn Richter,Bremen,Bremen,Am Wall,28195,53.079202,8.800558,597,Villa,Großzügige Villa mit weitläufigem Garten.,"Eine Villa der Extraklasse: Großzügige Räume, hohe Decken und eine luxuriöse Ausstattung machen dieses Anwesen einzigartig. Der weitläufige Garten lädt zum Entspannen ein. Die Innenstadt ist in wenigen Minuten erreichbar.",4.158.075.12 €,https://images.unsplash.com/photo-1592181051148-dc7cf0dc51f6
604,Felix Weber,Thüringen,Erfurt,Domplatz,99084,50.977383,11.034471,605,Haus,Charmantes Einfamilienhaus in einer ruhigen Straße.,Ein Haus mit viel Potenzial: Die geräumigen Zimmer bieten vielfältige Nutzungsmöglichkeiten. Der Garten ist perfekt für entspannte Nachmittage. Einkaufsmöglichkeiten und Ärzte sind in wenigen Minuten erreichbar.,371.334.07 €,https://images.unsplash.com/photo-1600585154340-be6161a56a0c
606,Anna Schwarz,Hessen,Darmstadt,Luisenplatz,64283,49.868516,8.647795,607,Villa,Großzügige Villa mit weitläufigem Garten.,"Eine Villa der Extraklasse: Großzügige Räume, hohe Decken und eine luxuriöse Ausstattung machen dieses Anwesen einzigartig. Der weitläufige Garten lädt zum Entspannen ein. Die Innenstadt ist in wenigen Minuten erreichbar.",3.366.571.28 €,https://images.unsplash.com/photo-1592181051148-dc7cf0dc51f6
608,Lukas Schmitz,Bremen,Bremen,Schlachte,28195,53.080302,8.800065,609,Haus,Modernes Haus in einem aufstrebenden Wohngebiet.,Dieses Haus vereint klassischen Charme mit modernem Komfort. Die hochwertige Ausstattung und die großen Fenster sorgen für ein helles und freundliches Wohnambiente. In der Nachbarschaft befinden sich Spielplätze und Parks.,853.341.58 €,https://images.unsplash.com/photo-1597597922952-3ad4d096b5f2
609,Luis Schneider,Schleswig-Holstein,Kiel,Rathausstraße,24103,54.32209,10.120625,610,Villa,Exklusive Villa in gehobener Wohnlage.,Diese Villa bietet exklusives Wohnen in einer der besten Lagen der Stadt. Mit ihrer weitläufigen Terrasse und dem gepflegten Garten ist sie perfekt für anspruchsvolle Familien. Hochwertige Materialien und elegante Details prägen das Interieur.,2.314.528.62 €,https://images.unsplash.com/photo-1613977257366-130f53a0161a
612,Maximilian Schneider,Hamburg,Hamburg,Mönckebergstraße,20095,53.548476,9.998468,613,Wohnung,Gemütliche Wohnung im Herzen der Stadt.,"Erleben Sie urbanes Wohnen in dieser stilvollen Wohnung. Die moderne Küche ist perfekt für Hobbyköche. Die Wohnung verfügt über einen kleinen Balkon, der zum Entspannen einlädt. In der Nähe befinden sich zahlreiche Cafés und Restaurants.",302.961.76 €,https://images.unsplash.com/photo-1575086194456-debcdf9d8eb7
614,Finn Zimmermann,Bremen,Bremen,Am Wall,28195,53.083444,8.803472,615,Haus,Modernes Haus in einem aufstrebenden Wohngebiet.,"Dieses Haus überzeugt durch seine großzügige Raumaufteilung und den gepflegten Garten. Ideal für Familien, die ein ruhiges Umfeld suchen. Die moderne Küche und das helle Wohnzimmer laden zum Verweilen ein. In der Nähe befinden sich Schulen und Kindergärten.",438.989.56 €,https://images.unsplash.com/photo-1600585154340-be6161a56a0c
616,Jonas Weber,Bremen,Bremen,Ostertorsteinweg,28203,53.076331,8.802863,617,Haus,Charmantes Einfamilienhaus in einer ruhigen Straße.,Ein Haus mit viel Potenzial: Die geräumigen Zimmer bieten vielfältige Nutzungsmöglichkeiten. Der Garten ist perfekt für entspannte Nachmittage. Einkaufsmöglichkeiten und Ärzte sind in wenigen Minuten erreichbar.,302.535.07 €,https://images.unsplash.com/photo-1600585155031-34d0b7b91b77
618,Sophia Zimmermann,Bayern,München,Sendlinger Straße,80331,48.132363,11.586873,619,Wohnung,Renovierte Wohnung in einer ruhigen Wohngegend.,Diese renovierte Wohnung liegt in einem ruhigen Wohnviertel und besticht durch ihren klassischen Schnitt. Ein großzügiger Wohnbereich und ein geräumiges Schlafzimmer bieten viel Platz. Schulen und Parks sind bequem zu Fuß erreichbar.,223.569.83 €,https://images.unsplash.com/photo-1560180474-e8563fd75f98
621,Emma Schwarz,Hessen,Frankfurt,Goethestraße,60313,50.109157,8.683863,622,Haus,Einladendes Haus in einem familienfreundlichen Viertel.,Dieses Haus vereint klassischen Charme mit modernem Komfort. Die hochwertige Ausstattung und die großen Fenster sorgen für ein helles und freundliches Wohnambiente. In der Nachbarschaft befinden sich Spielplätze und Parks.,868.154.79 €,https://images.unsplash.com/photo-1600585154340-be6161a56a0c
625,Jonas Schwarz,Berlin,Berlin,Alexanderplatz,10178,52.523152,13.406214,626,Wohnung,Renovierte Wohnung in einer ruhigen Wohngegend.,Diese renovierte Wohnung liegt in einem ruhigen Wohnviertel und besticht durch ihren klassischen Schnitt. Ein großzügiger Wohnbereich und ein geräumiges Schlafzimmer bieten viel Platz. Schulen und Parks sind bequem zu Fuß erreichbar.,287.440.57 €,https://images.unsplash.com/photo-1560180474-e8563fd75f98
629,Felix Neumann,Saarland,Saarbrücken,Rathausplatz,66111,49.24192,6.993476,630,Villa,Großzügige Villa mit weitläufigem Garten.,"Diese Villa kombiniert moderne Architektur mit klassischer Eleganz. Großzügige Räume, ein Pool und eine edle Küche bieten höchsten Wohnkomfort. Ideal für Familien, die Wert auf Stil und Komfort legen.",3.803.166.88 €,https://images.unsplash.com/photo-1592181051148-dc7cf0dc51f6
630,Mia Bauer,Hessen,Kassel,Königsplatz,34117,51.316172,9.481519,631,Haus,Gemütliches Haus in einer grünen Umgebung.,Ein Haus mit viel Potenzial: Die geräumigen Zimmer bieten vielfältige Nutzungsmöglichkeiten. Der Garten ist perfekt für entspannte Nachmittage. Einkaufsmöglichkeiten und Ärzte sind in wenigen Minuten erreichbar.,940.509.06 €,https://images.unsplash.com/photo-1597597922952-3ad4d096b5f2
637,Noah Schmidt,Nordrhein-Westfalen,Essen,Limbecker Platz,45127,51.454889,7.007932,638,Villa,Exklusive Villa in gehobener Wohnlage.,Diese Villa bietet exklusives Wohnen in einer der besten Lagen der Stadt. Mit ihrer weitläufigen Terrasse und dem gepflegten Garten ist sie perfekt für anspruchsvolle Familien. Hochwertige Materialien und elegante Details prägen das Interieur.,4.964.803.67 €,https://images.unsplash.com/photo-1592181051148-dc7cf0dc51f6
640,Mia Weber,Sachsen-Anhalt,Magdeburg,Breiter Weg,39104,52.118874,11.629349,641,Villa,Elegante Villa in einem ruhigen Vorort.,"Eine Villa der Extraklasse: Großzügige Räume, hohe Decken und eine luxuriöse Ausstattung machen dieses Anwesen einzigartig. Der weitläufige Garten lädt zum Entspannen ein. Die Innenstadt ist in wenigen Minuten erreichbar.",3.361.579.05 €,https://images.unsplash.com/photo-1592181051148-dc7cf0dc51f6
642,Ben Schneider,Hessen,Frankfurt,Goethestraße,60313,50.105924,8.686184,643,Villa,Exklusive Villa in gehobener Wohnlage.,"Eine Villa der Extraklasse: Großzügige Räume, hohe Decken und eine luxuriöse Ausstattung machen dieses Anwesen einzigartig. Der weitläufige Garten lädt zum Entspannen ein. Die Innenstadt ist in wenigen Minuten erreichbar.",3.499.394.99 €,https://images.unsplash.com/photo-1592181051148-dc7cf0dc51f6
645,Sophia Wagner,Mecklenburg-Vorpommern,Rostock,Am Brink,18055,54.09379,12.096178,646,Villa,Exklusive Villa in gehobener Wohnlage.,"Diese Villa kombiniert moderne Architektur mit klassischer Eleganz. Großzügige Räume, ein Pool und eine edle Küche bieten höchsten Wohnkomfort. Ideal für Familien, die Wert auf Stil und Komfort legen.",1.395.739.66 €,https://images.unsplash.com/photo-1592181051148-dc7cf0dc51f6
651,Felix Meyer,Sachsen-Anhalt,Magdeburg,Ernst-Reuter-Allee,39104,52.122369,11.624014,652,Haus,Charmantes Einfamilienhaus in einer ruhigen Straße.,"Dieses Haus überzeugt durch seine großzügige Raumaufteilung und den gepflegten Garten. Ideal für Familien, die ein ruhiges Umfeld suchen. Die moderne Küche und das helle Wohnzimmer laden zum Verweilen ein. In der Nähe befinden sich Schulen und Kindergärten.",782.512.77 €,https://images.unsplash.com/photo-1600585154340-be6161a56a0c
652,Leon Schmitz,Rheinland-Pfalz,Koblenz,Bahnhofstraße,56068,50.354834,7.5894,653,Wohnung,Renovierte Wohnung in einer ruhigen Wohngegend.,"Erleben Sie urbanes Wohnen in dieser stilvollen Wohnung. Die moderne Küche ist perfekt für Hobbyköche. Die Wohnung verfügt über einen kleinen Balkon, der zum Entspannen einlädt. In der Nähe befinden sich zahlreiche Cafés und Restaurants.",392.204.89 €,https://images.unsplash.com/photo-1575086194456-debcdf9d8eb7
653,Anna Schmidt,Hessen,Kassel,Königsplatz,34117,51.309878,9.477464,654,Haus,Charmantes Einfamilienhaus in einer ruhigen Straße.,Dieses Haus vereint klassischen Charme mit modernem Komfort. Die hochwertige Ausstattung und die großen Fenster sorgen für ein helles und freundliches Wohnambiente. In der Nachbarschaft befinden sich Spielplätze und Parks.,717.771.80 €,https://images.unsplash.com/photo-1600585154340-be6161a56a0c
655,Ben Koch,Baden-Württemberg,Freiburg,Kaiser-Joseph-Straße,79098,48.00219,7.838188,656,Villa,Elegante Villa in einem ruhigen Vorort.,"Eine Villa der Extraklasse: Großzügige Räume, hohe Decken und eine luxuriöse Ausstattung machen dieses Anwesen einzigartig. Der weitläufige Garten lädt zum Entspannen ein. Die Innenstadt ist in wenigen Minuten erreichbar.",1.387.096.36 €,https://images.unsplash.com/photo-1592181051148-dc7cf0dc51f6
659,Ben Fischer,Niedersachsen,Braunschweig,Hagenmarkt,38100,52.269865,10.529298,660,Haus,Modernes Haus in einem aufstrebenden Wohngebiet.,Ein Haus mit viel Potenzial: Die geräumigen Zimmer bieten vielfältige Nutzungsmöglichkeiten. Der Garten ist perfekt für entspannte Nachmittage. Einkaufsmöglichkeiten und Ärzte sind in wenigen Minuten erreichbar.,965.320.03 €,https://images.unsplash.com/photo-1597597922952-3ad4d096b5f2
663,Paul Müller,Rheinland-Pfalz,Koblenz,Löhrstraße,56068,50.358893,7.589964,664,Haus,Modernes Haus in einem aufstrebenden Wohngebiet.,"Dieses Haus überzeugt durch seine großzügige Raumaufteilung und den gepflegten Garten. Ideal für Familien, die ein ruhiges Umfeld suchen. Die moderne Küche und das helle Wohnzimmer laden zum Verweilen ein. In der Nähe befinden sich Schulen und Kindergärten.",794.858.92 €,https://images.unsplash.com/photo-1600585155031-34d0b7b91b77
664,Lea Wolf,Rheinland-Pfalz,Mainz,Fischtorstraße,55116,49.9948,8.245402,665,Wohnung,Modernes Apartment im zentralen Geschäftsviertel.,"Erleben Sie urbanes Wohnen in dieser stilvollen Wohnung. Die moderne Küche ist perfekt für Hobbyköche. Die Wohnung verfügt über einen kleinen Balkon, der zum Entspannen einlädt. In der Nähe befinden sich zahlreiche Cafés und Restaurants.",333.518.12 €,https://images.unsplash.com/photo-1560180474-e8563fd75f98
671,Anna Schwarz,Baden-Württemberg,Karlsruhe,Marktplatz,76133,49.011588,8.402596,672,Villa,Exklusive Villa in gehobener Wohnlage.,"Eine Villa der Extraklasse: Großzügige Räume, hohe Decken und eine luxuriöse Ausstattung machen dieses Anwesen einzigartig. Der weitläufige Garten lädt zum Entspannen ein. Die Innenstadt ist in wenigen Minuten erreichbar.",2.447.733.36 €,https://images.unsplash.com/photo-1592181051148-dc7cf0dc51f6
672,Lukas Weber,Schleswig-Holstein,Kiel,Rathausstraße,24103,54.323254,10.121122,673,Villa,Exklusive Villa in gehobener Wohnlage.,Diese Villa bietet exklusives Wohnen in einer der besten Lagen der Stadt. Mit ihrer weitläufigen Terrasse und dem gepflegten Garten ist sie perfekt für anspruchsvolle Familien. Hochwertige Materialien und elegante Details prägen das Interieur.,3.361.782.77 €,https://images.unsplash.com/photo-1592181051148-dc7cf0dc51f6
675,Emma Richter,Brandenburg,Potsdam,Breite Straße,14467,52.389575,13.068736,676,Haus,Gemütliches Haus in einer grünen Umgebung.,Dieses Haus vereint klassischen Charme mit modernem Komfort. Die hochwertige Ausstattung und die großen Fenster sorgen für ein helles und freundliches Wohnambiente. In der Nachbarschaft befinden sich Spielplätze und Parks.,345.305.22 €,https://images.unsplash.com/photo-1600585155031-34d0b7b91b77
677,Felix Neumann,Rheinland-Pfalz,Koblenz,Bahnhofstraße,56068,50.356302,7.592953,678,Wohnung,Modernes Apartment im zentralen Geschäftsviertel.,"Erleben Sie urbanes Wohnen in dieser stilvollen Wohnung. Die moderne Küche ist perfekt für Hobbyköche. Die Wohnung verfügt über einen kleinen Balkon, der zum Entspannen einlädt. In der Nähe befinden sich zahlreiche Cafés und Restaurants.",444.569.14 €,https://images.unsplash.com/photo-1560180474-e8563fd75f98
680,Maximilian Richter,Thüringen,Erfurt,Domplatz,99084,50.981579,11.035832,681,Villa,Luxuriöse Villa mit beeindruckendem Blick.,"Eine Villa der Extraklasse: Großzügige Räume, hohe Decken und eine luxuriöse Ausstattung machen dieses Anwesen einzigartig. Der weitläufige Garten lädt zum Entspannen ein. Die Innenstadt ist in wenigen Minuten erreichbar.",4.038.946.79 €,https://images.unsplash.com/photo-1592181051148-dc7cf0dc51f6
683,Hannah Weber,Bremen,Bremen,Am Wall,28195,53.077206,8.804084,684,Haus,Modernes Haus in einem aufstrebenden Wohngebiet.,"Dieses Haus überzeugt durch seine großzügige Raumaufteilung und den gepflegten Garten. Ideal für Familien, die ein ruhiges Umfeld suchen. Die moderne Küche und das helle Wohnzimmer laden zum Verweilen ein. In der Nähe befinden sich Schulen und Kindergärten.",454.162.62 €,https://images.unsplash.com/photo-1600585155031-34d0b7b91b77
685,Jonas Koch,Hessen,Darmstadt,Marktplatz,64283,49.874952,8.652415,686,Haus,Charmantes Einfamilienhaus in einer ruhigen Straße.,"Dieses Haus überzeugt durch seine großzügige Raumaufteilung und den gepflegten Garten. Ideal für Familien, die ein ruhiges Umfeld suchen. Die moderne Küche und das helle Wohnzimmer laden zum Verweilen ein. In der Nähe befinden sich Schulen und Kindergärten.",736.270.26 €,https://images.unsplash.com/photo-1600585154340-be6161a56a0c
686,Luis Schwarz,Mecklenburg-Vorpommern,Rostock,Am Brink,18055,54.092124,12.103194,687,Haus,Gemütliches Haus in einer grünen Umgebung.,"Dieses Haus überzeugt durch seine großzügige Raumaufteilung und den gepflegten Garten. Ideal für Familien, die ein ruhiges Umfeld suchen. Die moderne Küche und das helle Wohnzimmer laden zum Verweilen ein. In der Nähe befinden sich Schulen und Kindergärten.",679.180.66 €,https://images.unsplash.com/photo-1600585154340-be6161a56a0c
690,Jonas Neumann,Mecklenburg-Vorpommern,Rostock,Kröpeliner Straße,18055,54.091041,12.095171,691,Haus,Modernes Haus in einem aufstrebenden Wohngebiet.,Ein Haus mit viel Potenzial: Die geräumigen Zimmer bieten vielfältige Nutzungsmöglichkeiten. Der Garten ist perfekt für entspannte Nachmittage. Einkaufsmöglichkeiten und Ärzte sind in wenigen Minuten erreichbar.,807.576.98 €,https://images.unsplash.com/photo-1597597922952-3ad4d096b5f2
692,Sophia Becker,Baden-Württemberg,Karlsruhe,Marktplatz,76133,49.011095,8.40476,693,Villa,Exklusive Villa in gehobener Wohnlage.,"Eine Villa der Extraklasse: Großzügige Räume, hohe Decken und eine luxuriöse Ausstattung machen dieses Anwesen einzigartig. Der weitläufige Garten lädt zum Entspannen ein. Die Innenstadt ist in wenigen Minuten erreichbar.",1.792.699.82 €,https://images.unsplash.com/photo-1592181051148-dc7cf0dc51f6
693,Elias Richter,Niedersachsen,Braunschweig,Hagenmarkt,38100,52.269383,10.530664,694,Villa,Elegante Villa in einem ruhigen Vorort.,"Diese Villa kombiniert moderne Architektur mit klassischer Eleganz. Großzügige Räume, ein Pool und eine edle Küche bieten höchsten Wohnkomfort. Ideal für Familien, die Wert auf Stil und Komfort legen.",3.254.371.33 €,https://images.unsplash.com/photo-1592181051148-dc7cf0dc51f6
697,Lukas Zimmermann,Mecklenburg-Vorpommern,Rostock,Kröpeliner Straße,18055,54.090251,12.10116,698,Villa,Elegante Villa in einem ruhigen Vorort.,"Eine Villa der Extraklasse: Großzügige Räume, hohe Decken und eine luxuriöse Ausstattung machen dieses Anwesen einzigartig. Der weitläufige Garten lädt zum Entspannen ein. Die Innenstadt ist in wenigen Minuten erreichbar.",4.793.960.86 €,https://images.unsplash.com/photo-1592181051148-dc7cf0dc51f6
700,Lea Schwarz,Thüringen,Erfurt,Domplatz,99084,50.975124,11.036394,701,Haus,Modernes Haus in einem aufstrebenden Wohngebiet.,"Dieses Haus überzeugt durch seine großzügige Raumaufteilung und den gepflegten Garten. Ideal für Familien, die ein ruhiges Umfeld suchen. Die moderne Küche und das helle Wohnzimmer laden zum Verweilen ein. In der Nähe befinden sich Schulen und Kindergärten.",344.787.41 €,https://images.unsplash.com/photo-1600585154340-be6161a56a0c
702,Lea Klein,Rheinland-Pfalz,Koblenz,Löhrstraße,56068,50.353162,7.591591,703,Villa,Großzügige Villa mit weitläufigem Garten.,"Eine Villa der Extraklasse: Großzügige Räume, hohe Decken und eine luxuriöse Ausstattung machen dieses Anwesen einzigartig. Der weitläufige Garten lädt zum Entspannen ein. Die Innenstadt ist in wenigen Minuten erreichbar.",3.042.222.33 €,https://images.unsplash.com/photo-1613977257366-130f53a0161a
704,Luis Koch,Nordrhein-Westfalen,Essen,Kettwiger Straße,45127,51.459474,7.009629,705,Haus,Einladendes Haus in einem familienfreundlichen Viertel.,Dieses Haus vereint klassischen Charme mit modernem Komfort. Die hochwertige Ausstattung und die großen Fenster sorgen für ein helles und freundliches Wohnambiente. In der Nachbarschaft befinden sich Spielplätze und Parks.,651.130.40 €,https://images.unsplash.com/photo-1597597922952-3ad4d096b5f2
711,Julia Hartmann,Nordrhein-Westfalen,Düsseldorf,Schadowstraße,40212,51.232453,6.777626,712,Haus,Modernes Haus in einem aufstrebenden Wohngebiet.,Ein Haus mit viel Potenzial: Die geräumigen Zimmer bieten vielfältige Nutzungsmöglichkeiten. Der Garten ist perfekt für entspannte Nachmittage. Einkaufsmöglichkeiten und Ärzte sind in wenigen Minuten erreichbar.,698.869.21 €,https://images.unsplash.com/photo-1600585154340-be6161a56a0c
712,Anna Bauer,Rheinland-Pfalz,Koblenz,Rheinstraße,56068,50.351968,7.586103,713,Wohnung,Gemütliche Wohnung im Herzen der Stadt.,Diese Wohnung bietet modernen Wohnkomfort in zentraler Lage. Die offene Raumgestaltung schafft ein großzügiges Raumgefühl. Die großen Fenster sorgen für viel Licht. Ideal für Singles oder Paare. Einkaufsmöglichkeiten und öffentliche Verkehrsmittel befinden sich in unmittelbarer Nähe.,137.871.72 €,https://images.unsplash.com/photo-1593088411905-9b7a2d7e6f3e
713,Paul Wagner,Bremen,Bremen,Am Wall,28195,53.07948,8.802204,714,Villa,Großzügige Villa mit weitläufigem Garten.,"Diese Villa kombiniert moderne Architektur mit klassischer Eleganz. Großzügige Räume, ein Pool und eine edle Küche bieten höchsten Wohnkomfort. Ideal für Familien, die Wert auf Stil und Komfort legen.",4.961.241.95 €,https://images.unsplash.com/photo-1592181051148-dc7cf0dc51f6
714,Anna Krüger,Rheinland-Pfalz,Koblenz,Bahnhofstraße,56068,50.35872,7.586832,715,Wohnung,Modernes Apartment im zentralen Geschäftsviertel.,Diese Wohnung bietet modernen Wohnkomfort in zentraler Lage. Die offene Raumgestaltung schafft ein großzügiges Raumgefühl. Die großen Fenster sorgen für viel Licht. Ideal für Singles oder Paare. Einkaufsmöglichkeiten und öffentliche Verkehrsmittel befinden sich in unmittelbarer Nähe.,321.324.48 €,https://images.unsplash.com/photo-1593088411905-9b7a2d7e6f3e
719,Julia Schröder,Hamburg,Hamburg,Reeperbahn,20359,53.550633,9.994826,720,Wohnung,Gemütliche Wohnung im Herzen der Stadt.,Diese Wohnung bietet modernen Wohnkomfort in zentraler Lage. Die offene Raumgestaltung schafft ein großzügiges Raumgefühl. Die großen Fenster sorgen für viel Licht. Ideal für Singles oder Paare. Einkaufsmöglichkeiten und öffentliche Verkehrsmittel befinden sich in unmittelbarer Nähe.,146.573.07 €,https://images.unsplash.com/photo-1575086194456-debcdf9d8eb7
721,Lea Neumann,Nordrhein-Westfalen,Dortmund,Westenhellweg,44137,51.509759,7.464817,722,Villa,Großzügige Villa mit weitläufigem Garten.,"Diese Villa kombiniert moderne Architektur mit klassischer Eleganz. Großzügige Räume, ein Pool und eine edle Küche bieten höchsten Wohnkomfort. Ideal für Familien, die Wert auf Stil und Komfort legen.",3.641.281.85 €,https://images.unsplash.com/photo-1592181051148-dc7cf0dc51f6
724,Lukas Weber,Mecklenburg-Vorpommern,Rostock,Lange Straße,18055,54.090536,12.097962,725,Haus,Einladendes Haus in einem familienfreundlichen Viertel.,Dieses Haus vereint klassischen Charme mit modernem Komfort. Die hochwertige Ausstattung und die großen Fenster sorgen für ein helles und freundliches Wohnambiente. In der Nachbarschaft befinden sich Spielplätze und Parks.,633.688.37 €,https://images.unsplash.com/photo-1600585155031-34d0b7b91b77
726,Ben Fischer,Schleswig-Holstein,Kiel,Rathausstraße,24103,54.320966,10.122513,727,Villa,Luxuriöse Villa mit beeindruckendem Blick.,"Eine Villa der Extraklasse: Großzügige Räume, hohe Decken und eine luxuriöse Ausstattung machen dieses Anwesen einzigartig. Der weitläufige Garten lädt zum Entspannen ein. Die Innenstadt ist in wenigen Minuten erreichbar.",4.593.210.25 €,https://images.unsplash.com/photo-1592181051148-dc7cf0dc51f6
727,Felix Krüger,Rheinland-Pfalz,Mainz,Ludwigsstraße,55116,49.992698,8.249616,728,Villa,Luxuriöse Villa mit beeindruckendem Blick.,"Diese Villa kombiniert moderne Architektur mit klassischer Eleganz. Großzügige Räume, ein Pool und eine edle Küche bieten höchsten Wohnkomfort. Ideal für Familien, die Wert auf Stil und Komfort legen.",4.343.980.24 €,https://images.unsplash.com/photo-1592181051148-dc7cf0dc51f6
732,Marie Neumann,Nordrhein-Westfalen,Essen,Kettwiger Straße,45127,51.453598,7.008852,733,Haus,Einladendes Haus in einem familienfreundlichen Viertel.,"Dieses Haus überzeugt durch seine großzügige Raumaufteilung und den gepflegten Garten. Ideal für Familien, die ein ruhiges Umfeld suchen. Die moderne Küche und das helle Wohnzimmer laden zum Verweilen ein. In der Nähe befinden sich Schulen und Kindergärten.",971.176.57 €,https://images.unsplash.com/photo-1600585155031-34d0b7b91b77
735,Sophia Zimmermann,Hessen,Frankfurt,Zeil,60313,50.11291,8.683894,736,Villa,Exklusive Villa in gehobener Wohnlage.,"Eine Villa der Extraklasse: Großzügige Räume, hohe Decken und eine luxuriöse Ausstattung machen dieses Anwesen einzigartig. Der weitläufige Garten lädt zum Entspannen ein. Die Innenstadt ist in wenigen Minuten erreichbar.",2.296.100.07 €,https://images.unsplash.com/photo-1613977257366-130f53a0161a
737,Sophia Hartmann,Bayern,Augsburg,Fuggerstraße,86150,48.369302,10.90137,738,Haus,Einladendes Haus in einem familienfreundlichen Viertel.,"Dieses Haus überzeugt durch seine großzügige Raumaufteilung und den gepflegten Garten. Ideal für Familien, die ein ruhiges Umfeld suchen. Die moderne Küche und das helle Wohnzimmer laden zum Verweilen ein. In der Nähe befinden sich Schulen und Kindergärten.",791.591.79 €,https://images.unsplash.com/photo-1597597922952-3ad4d096b5f2
739,Lukas Meyer,Saarland,Saarbrücken,Bahnhofstraße,66111,49.238517,7.000707,740,Wohnung,Renovierte Wohnung in einer ruhigen Wohngegend.,Diese renovierte Wohnung liegt in einem ruhigen Wohnviertel und besticht durch ihren klassischen Schnitt. Ein großzügiger Wohnbereich und ein geräumiges Schlafzimmer bieten viel Platz. Schulen und Parks sind bequem zu Fuß erreichbar.,401.801.01 €,https://images.unsplash.com/photo-1593088411905-9b7a2d7e6f3e
741,Julia Schwarz,Rheinland-Pfalz,Koblenz,Rheinstraße,56068,50.358892,7.591769,742,Wohnung,Renovierte Wohnung in einer ruhigen Wohngegend.,Diese renovierte Wohnung liegt in einem ruhigen Wohnviertel und besticht durch ihren klassischen Schnitt. Ein großzügiger Wohnbereich und ein geräumiges Schlafzimmer bieten viel Platz. Schulen und Parks sind bequem zu Fuß erreichbar.,330.775.18 €,https://images.unsplash.com/photo-1593088411905-9b7a2d7e6f3e
744,Lea Zimmermann,Bayern,Augsburg,Königsplatz,86150,48.369789,10.900858,745,Villa,Luxuriöse Villa mit beeindruckendem Blick.,Diese Villa bietet exklusives Wohnen in einer der besten Lagen der Stadt. Mit ihrer weitläufigen Terrasse und dem gepflegten Garten ist sie perfekt für anspruchsvolle Familien. Hochwertige Materialien und elegante Details prägen das Interieur.,3.284.304.92 €,https://images.unsplash.com/photo-1613977257366-130f53a0161a
745,Leon Wagner,Hessen,Darmstadt,Marktplatz,64283,49.870825,8.652622,746,Haus,Charmantes Einfamilienhaus in einer ruhigen Straße.,Ein Haus mit viel Potenzial: Die geräumigen Zimmer bieten vielfältige Nutzungsmöglichkeiten. Der Garten ist perfekt für entspannte Nachmittage. Einkaufsmöglichkeiten und Ärzte sind in wenigen Minuten erreichbar.,973.392.69 €,https://images.unsplash.com/photo-1600585155031-34d0b7b91b77
747,Julia Hartmann,Rheinland-Pfalz,Mainz,Ludwigsstraße,55116,49.995602,8.244211,748,Haus,Modernes Haus in einem aufstrebenden Wohngebiet.,Dieses Haus vereint klassischen Charme mit modernem Komfort. Die hochwertige Ausstattung und die großen Fenster sorgen für ein helles und freundliches Wohnambiente. In der Nachbarschaft befinden sich Spielplätze und Parks.,798.780.15 €,https://images.unsplash.com/photo-1597597922952-3ad4d096b5f2
749,Marie Fischer,Nordrhein-Westfalen,Dortmund,Hansastraße,44137,51.509032,7.462007,750,Haus,Gemütliches Haus in einer grünen Umgebung.,Dieses Haus vereint klassischen Charme mit modernem Komfort. Die hochwertige Ausstattung und die großen Fenster sorgen für ein helles und freundliches Wohnambiente. In der Nachbarschaft befinden sich Spielplätze und Parks.,952.719.66 €,https://images.unsplash.com/photo-1600585155031-34d0b7b91b77
750,Hannah Meyer,Niedersachsen,Hannover,Georgstraße,30159,52.373991,9.736393,751,Haus,Modernes Haus in einem aufstrebenden Wohngebiet.,"Dieses Haus überzeugt durch seine großzügige Raumaufteilung und den gepflegten Garten. Ideal für Familien, die ein ruhiges Umfeld suchen. Die moderne Küche und das helle Wohnzimmer laden zum Verweilen ein. In der Nähe befinden sich Schulen und Kindergärten.",710.489.20 €,https://images.unsplash.com/photo-1600585154340-be6161a56a0c
751,Hannah Schwarz,Bayern,München,Sendlinger Straße,80331,48.137706,11.578317,752,Wohnung,Renovierte Wohnung in einer ruhigen Wohngegend.,Diese Wohnung bietet modernen Wohnkomfort in zentraler Lage. Die offene Raumgestaltung schafft ein großzügiges Raumgefühl. Die großen Fenster sorgen für viel Licht. Ideal für Singles oder Paare. Einkaufsmöglichkeiten und öffentliche Verkehrsmittel befinden sich in unmittelbarer Nähe.,278.253.97 €,https://images.unsplash.com/photo-1575086194456-debcdf9d8eb7
753,Maximilian Koch,Rheinland-Pfalz,Mainz,Große Bleiche,55116,49.995325,8.24611,754,Villa,Elegante Villa in einem ruhigen Vorort.,Diese Villa bietet exklusives Wohnen in einer der besten Lagen der Stadt. Mit ihrer weitläufigen Terrasse und dem gepflegten Garten ist sie perfekt für anspruchsvolle Familien. Hochwertige Materialien und elegante Details prägen das Interieur.,2.030.402.05 €,https://images.unsplash.com/photo-1592181051148-dc7cf0dc51f6
758,Maximilian Neumann,Mecklenburg-Vorpommern,Rostock,Lange Straße,18055,54.093112,12.099575,759,Haus,Einladendes Haus in einem familienfreundlichen Viertel.,Dieses Haus vereint klassischen Charme mit modernem Komfort. Die hochwertige Ausstattung und die großen Fenster sorgen für ein helles und freundliches Wohnambiente. In der Nachbarschaft befinden sich Spielplätze und Parks.,498.422.34 €,https://images.unsplash.com/photo-1600585155031-34d0b7b91b77
760,Elias Wagner,Bremen,Bremen,Ostertorsteinweg,28203,53.080359,8.804253,761,Villa,Elegante Villa in einem ruhigen Vorort.,"Eine Villa der Extraklasse: Großzügige Räume, hohe Decken und eine luxuriöse Ausstattung machen dieses Anwesen einzigartig. Der weitläufige Garten lädt zum Entspannen ein. Die Innenstadt ist in wenigen Minuten erreichbar.",2.512.392.49 €,https://images.unsplash.com/photo-1592181051148-dc7cf0dc51f6
761,Elias Neumann,Nordrhein-Westfalen,Dortmund,Hansastraße,44137,51.508996,7.46596,762,Villa,Exklusive Villa in gehobener Wohnlage.,"Diese Villa kombiniert moderne Architektur mit klassischer Eleganz. Großzügige Räume, ein Pool und eine edle Küche bieten höchsten Wohnkomfort. Ideal für Familien, die Wert auf Stil und Komfort legen.",4.874.617.85 €,https://images.unsplash.com/photo-1592181051148-dc7cf0dc51f6
766,Lea Wagner,Bayern,München,Marienplatz,80331,48.135232,11.577056,767,Wohnung,Gemütliche Wohnung im Herzen der Stadt.,"Erleben Sie urbanes Wohnen in dieser stilvollen Wohnung. Die moderne Küche ist perfekt für Hobbyköche. Die Wohnung verfügt über einen kleinen Balkon, der zum Entspannen einlädt. In der Nähe befinden sich zahlreiche Cafés und Restaurants.",454.489.34 €,https://images.unsplash.com/photo-1575086194456-debcdf9d8eb7
767,Ben Hartmann,Bayern,Nürnberg,Königstraße,90402,49.449412,11.076428,768,Wohnung,Modernes Apartment im zentralen Geschäftsviertel.,Diese renovierte Wohnung liegt in einem ruhigen Wohnviertel und besticht durch ihren klassischen Schnitt. Ein großzügiger Wohnbereich und ein geräumiges Schlafzimmer bieten viel Platz. Schulen und Parks sind bequem zu Fuß erreichbar.,494.415.62 €,https://images.unsplash.com/photo-1593088411905-9b7a2d7e6f3e
769,Felix Schmidt,Baden-Württemberg,Freiburg,Bertoldstraße,79098,47.996249,7.837777,770,Villa,Elegante Villa in einem ruhigen Vorort.,"Diese Villa kombiniert moderne Architektur mit klassischer Eleganz. Großzügige Räume, ein Pool und eine edle Küche bieten höchsten Wohnkomfort. Ideal für Familien, die Wert auf Stil und Komfort legen.",2.201.819.05 €,https://images.unsplash.com/photo-1592181051148-dc7cf0dc51f6
782,Lea Bauer,Hessen,Wiesbaden,Taunusstraße,65183,50.085674,8.244272,783,Villa,Exklusive Villa in gehobener Wohnlage.,Diese Villa bietet exklusives Wohnen in einer der besten Lagen der Stadt. Mit ihrer weitläufigen Terrasse und dem gepflegten Garten ist sie perfekt für anspruchsvolle Familien. Hochwertige Materialien und elegante Details prägen das Interieur.,4.274.923.95 €,https://images.unsplash.com/photo-1592181051148-dc7cf0dc51f6
790,Lea Meyer,Schleswig-Holstein,Kiel,Exerzierplatz,24103,54.326286,10.122358,791,Villa,Elegante Villa in einem ruhigen Vorort.,Diese Villa bietet exklusives Wohnen in einer der besten Lagen der Stadt. Mit ihrer weitläufigen Terrasse und dem gepflegten Garten ist sie perfekt für anspruchsvolle Familien. Hochwertige Materialien und elegante Details prägen das Interieur.,1.796.906.26 €,https://images.unsplash.com/photo-1592181051148-dc7cf0dc51f6
791,Noah Müller,Rheinland-Pfalz,Koblenz,Rheinstraße,56068,50.355163,7.591853,792,Wohnung,Renovierte Wohnung in einer ruhigen Wohngegend.,Diese renovierte Wohnung liegt in einem ruhigen Wohnviertel und besticht durch ihren klassischen Schnitt. Ein großzügiger Wohnbereich und ein geräumiges Schlafzimmer bieten viel Platz. Schulen und Parks sind bequem zu Fuß erreichbar.,177.956.27 €,https://images.unsplash.com/photo-1560180474-e8563fd75f98
793,Lukas Richter,Baden-Württemberg,Karlsruhe,Marktplatz,76133,49.007991,8.400889,794,Villa,Großzügige Villa mit weitläufigem Garten.,"Diese Villa kombiniert moderne Architektur mit klassischer Eleganz. Großzügige Räume, ein Pool und eine edle Küche bieten höchsten Wohnkomfort. Ideal für Familien, die Wert auf Stil und Komfort legen.",3.202.588.32 €,https://images.unsplash.com/photo-1613977257366-130f53a0161a
798,Finn Schröder,Bremen,Bremen,Schlachte,28195,53.076975,8.800003,799,Haus,Einladendes Haus in einem familienfreundlichen Viertel.,Ein Haus mit viel Potenzial: Die geräumigen Zimmer bieten vielfältige Nutzungsmöglichkeiten. Der Garten ist perfekt für entspannte Nachmittage. Einkaufsmöglichkeiten und Ärzte sind in wenigen Minuten erreichbar.,952.919.19 €,https://images.unsplash.com/photo-1597597922952-3ad4d096b5f2
799,Paul Meyer,Berlin,Berlin,Alexanderplatz,10178,52.516536,13.402019,800,Wohnung,Gemütliche Wohnung im Herzen der Stadt.,"Erleben Sie urbanes Wohnen in dieser stilvollen Wohnung. Die moderne Küche ist perfekt für Hobbyköche. Die Wohnung verfügt über einen kleinen Balkon, der zum Entspannen einlädt. In der Nähe befinden sich zahlreiche Cafés und Restaurants.",123.907.71 €,https://images.unsplash.com/photo-1575086194456-debcdf9d8eb7
802,Noah Bauer,Mecklenburg-Vorpommern,Rostock,Lange Straße,18055,54.091895,12.101515,803,Villa,Luxuriöse Villa mit beeindruckendem Blick.,"Diese Villa kombiniert moderne Architektur mit klassischer Eleganz. Großzügige Räume, ein Pool und eine edle Küche bieten höchsten Wohnkomfort. Ideal für Familien, die Wert auf Stil und Komfort legen.",2.804.259.15 €,https://images.unsplash.com/photo-1592181051148-dc7cf0dc51f6
810,Jonas Bauer,Sachsen-Anhalt,Magdeburg,Alter Markt,39104,52.123309,11.629063,811,Haus,Einladendes Haus in einem familienfreundlichen Viertel.,Ein Haus mit viel Potenzial: Die geräumigen Zimmer bieten vielfältige Nutzungsmöglichkeiten. Der Garten ist perfekt für entspannte Nachmittage. Einkaufsmöglichkeiten und Ärzte sind in wenigen Minuten erreichbar.,682.055.84 €,https://images.unsplash.com/photo-1600585154340-be6161a56a0c
812,Mia Wolf,Baden-Württemberg,Freiburg,Augustinerplatz,79098,47.999643,7.845804,813,Haus,Charmantes Einfamilienhaus in einer ruhigen Straße.,Dieses Haus vereint klassischen Charme mit modernem Komfort. Die hochwertige Ausstattung und die großen Fenster sorgen für ein helles und freundliches Wohnambiente. In der Nachbarschaft befinden sich Spielplätze und Parks.,846.836.25 €,https://images.unsplash.com/photo-1600585155031-34d0b7b91b77
813,Leon Müller,Schleswig-Holstein,Kiel,Holstenstraße,24103,54.327241,10.121258,814,Villa,Großzügige Villa mit weitläufigem Garten.,"Diese Villa kombiniert moderne Architektur mit klassischer Eleganz. Großzügige Räume, ein Pool und eine edle Küche bieten höchsten Wohnkomfort. Ideal für Familien, die Wert auf Stil und Komfort legen.",4.898.730.16 €,https://images.unsplash.com/photo-1613977257366-130f53a0161a
816,Luis Zimmermann,Bremen,Bremen,Am Wall,28195,53.07957,8.804909,817,Villa,Großzügige Villa mit weitläufigem Garten.,"Eine Villa der Extraklasse: Großzügige Räume, hohe Decken und eine luxuriöse Ausstattung machen dieses Anwesen einzigartig. Der weitläufige Garten lädt zum Entspannen ein. Die Innenstadt ist in wenigen Minuten erreichbar.",2.382.046.18 €,https://images.unsplash.com/photo-1592181051148-dc7cf0dc51f6
822,Jonas Hartmann,Baden-Württemberg,Karlsruhe,Marktplatz,76133,49.004629,8.402959,823,Villa,Elegante Villa in einem ruhigen Vorort.,"Eine Villa der Extraklasse: Großzügige Räume, hohe Decken und eine luxuriöse Ausstattung machen dieses Anwesen einzigartig. Der weitläufige Garten lädt zum Entspannen ein. Die Innenstadt ist in wenigen Minuten erreichbar.",3.283.633.96 €,https://images.unsplash.com/photo-1592181051148-dc7cf0dc51f6
823,Elias Bauer,Bremen,Bremen,Schlachte,28195,53.081733,8.800358,824,Villa,Großzügige Villa mit weitläufigem Garten.,"Eine Villa der Extraklasse: Großzügige Räume, hohe Decken und eine luxuriöse Ausstattung machen dieses Anwesen einzigartig. Der weitläufige Garten lädt zum Entspannen ein. Die Innenstadt ist in wenigen Minuten erreichbar.",2.257.618.95 €,https://images.unsplash.com/photo-1592181051148-dc7cf0dc51f6
827,Finn Schmitz,Bayern,Nürnberg,Königstraße,90402,49.447755,11.076083,828,Wohnung,Modernes Apartment im zentralen Geschäftsviertel.,Diese Wohnung bietet modernen Wohnkomfort in zentraler Lage. Die offene Raumgestaltung schafft ein großzügiges Raumgefühl. Die großen Fenster sorgen für viel Licht. Ideal für Singles oder Paare. Einkaufsmöglichkeiten und öffentliche Verkehrsmittel befinden sich in unmittelbarer Nähe.,241.527.03 €,https://images.unsplash.com/photo-1575086194456-debcdf9d8eb7
834,Lina Neumann,Hessen,Darmstadt,Marktplatz,64283,49.868533,8.650848,835,Haus,Charmantes Einfamilienhaus in einer ruhigen Straße.,Dieses Haus vereint klassischen Charme mit modernem Komfort. Die hochwertige Ausstattung und die großen Fenster sorgen für ein helles und freundliches Wohnambiente. In der Nachbarschaft befinden sich Spielplätze und Parks.,505.924.99 €,https://images.unsplash.com/photo-1597597922952-3ad4d096b5f2
840,Felix Weber,Bayern,München,Marienplatz,80331,48.132665,11.579377,841,Wohnung,Gemütliche Wohnung im Herzen der Stadt.,"Erleben Sie urbanes Wohnen in dieser stilvollen Wohnung. Die moderne Küche ist perfekt für Hobbyköche. Die Wohnung verfügt über einen kleinen Balkon, der zum Entspannen einlädt. In der Nähe befinden sich zahlreiche Cafés und Restaurants.",461.955.54 €,https://images.unsplash.com/photo-1593088411905-9b7a2d7e6f3e
842,Paul Schneider,Bremen,Bremen,Schlachte,28195,53.083423,8.804716,843,Villa,Elegante Villa in einem ruhigen Vorort.,"Eine Villa der Extraklasse: Großzügige Räume, hohe Decken und eine luxuriöse Ausstattung machen dieses Anwesen einzigartig. Der weitläufige Garten lädt zum Entspannen ein. Die Innenstadt ist in wenigen Minuten erreichbar.",3.774.344.08 €,https://images.unsplash.com/photo-1592181051148-dc7cf0dc51f6
845,Luis Krüger,Hessen,Frankfurt,Zeil,60313,50.10594,8.685531,846,Haus,Modernes Haus in einem aufstrebenden Wohngebiet.,Dieses Haus vereint klassischen Charme mit modernem Komfort. Die hochwertige Ausstattung und die großen Fenster sorgen für ein helles und freundliches Wohnambiente. In der Nachbarschaft befinden sich Spielplätze und Parks.,486.889.55 €,https://images.unsplash.com/photo-1600585154340-be6161a56a0c
847,Anna Schmidt,Bayern,München,Sendlinger Straße,80331,48.137929,11.578928,848,Wohnung,Stilvolles Studio in der belebten Innenstadt.,Diese renovierte Wohnung liegt in einem ruhigen Wohnviertel und besticht durch ihren klassischen Schnitt. Ein großzügiger Wohnbereich und ein geräumiges Schlafzimmer bieten viel Platz. Schulen und Parks sind bequem zu Fuß erreichbar.,190.554.70 €,https://images.unsplash.com/photo-1575086194456-debcdf9d8eb7
852,Julia Neumann,Nordrhein-Westfalen,Essen,Kettwiger Straße,45127,51.459381,7.006915,853,Villa,Elegante Villa in einem ruhigen Vorort.,"Eine Villa der Extraklasse: Großzügige Räume, hohe Decken und eine luxuriöse Ausstattung machen dieses Anwesen einzigartig. Der weitläufige Garten lädt zum Entspannen ein. Die Innenstadt ist in wenigen Minuten erreichbar.",4.549.421.16 €,https://images.unsplash.com/photo-1592181051148-dc7cf0dc51f6
853,Lina Schmidt,Sachsen-Anhalt,Magdeburg,Alter Markt,39104,52.120939,11.62713,854,Haus,Gemütliches Haus in einer grünen Umgebung.,Ein Haus mit viel Potenzial: Die geräumigen Zimmer bieten vielfältige Nutzungsmöglichkeiten. Der Garten ist perfekt für entspannte Nachmittage. Einkaufsmöglichkeiten und Ärzte sind in wenigen Minuten erreichbar.,985.937.61 €,https://images.unsplash.com/photo-1600585155031-34d0b7b91b77
858,Luis Hartmann,Rheinland-Pfalz,Koblenz,Löhrstraße,56068,50.358111,7.590052,859,Villa,Elegante Villa in einem ruhigen Vorort.,"Diese Villa kombiniert moderne Architektur mit klassischer Eleganz. Großzügige Räume, ein Pool und eine edle Küche bieten höchsten Wohnkomfort. Ideal für Familien, die Wert auf Stil und Komfort legen.",4.482.372.11 €,https://images.unsplash.com/photo-1613977257366-130f53a0161a
859,Anna Neumann,Berlin,Berlin,Kurfürstendamm,10719,52.519384,13.408801,860,Wohnung,Modernes Apartment im zentralen Geschäftsviertel.,Diese renovierte Wohnung liegt in einem ruhigen Wohnviertel und besticht durch ihren klassischen Schnitt. Ein großzügiger Wohnbereich und ein geräumiges Schlafzimmer bieten viel Platz. Schulen und Parks sind bequem zu Fuß erreichbar.,358.616.49 €,https://images.unsplash.com/photo-1575086194456-debcdf9d8eb7
863,Lea Klein,Thüringen,Erfurt,Anger,99084,50.976379,11.034068,864,Haus,Modernes Haus in einem aufstrebenden Wohngebiet.,Ein Haus mit viel Potenzial: Die geräumigen Zimmer bieten vielfältige Nutzungsmöglichkeiten. Der Garten ist perfekt für entspannte Nachmittage. Einkaufsmöglichkeiten und Ärzte sind in wenigen Minuten erreichbar.,788.613.90 €,https://images.unsplash.com/photo-1600585155031-34d0b7b91b77
865,Ben Weber,Hessen,Frankfurt,Zeil,60313,50.106009,8.685007,866,Haus,Einladendes Haus in einem familienfreundlichen Viertel.,Dieses Haus vereint klassischen Charme mit modernem Komfort. Die hochwertige Ausstattung und die großen Fenster sorgen für ein helles und freundliches Wohnambiente. In der Nachbarschaft befinden sich Spielplätze und Parks.,423.644.83 €,https://images.unsplash.com/photo-1600585154340-be6161a56a0c
870,Lea Meyer,Hessen,Darmstadt,Rheinstraße,64283,49.871887,8.648302,871,Wohnung,Stilvolles Studio in der belebten Innenstadt.,Diese renovierte Wohnung liegt in einem ruhigen Wohnviertel und besticht durch ihren klassischen Schnitt. Ein großzügiger Wohnbereich und ein geräumiges Schlafzimmer bieten viel Platz. Schulen und Parks sind bequem zu Fuß erreichbar.,492.130.70 €,https://images.unsplash.com/photo-1575086194456-debcdf9d8eb7
873,Luis Zimmermann,Niedersachsen,Osnabrück,Große Straße,49074,52.279974,8.05012,874,Haus,Charmantes Einfamilienhaus in einer ruhigen Straße.,"Dieses Haus überzeugt durch seine großzügige Raumaufteilung und den gepflegten Garten. Ideal für Familien, die ein ruhiges Umfeld suchen. Die moderne Küche und das helle Wohnzimmer laden zum Verweilen ein. In der Nähe befinden sich Schulen und Kindergärten.",605.809.39 €,https://images.unsplash.com/photo-1597597922952-3ad4d096b5f2
877,Jonas Richter,Rheinland-Pfalz,Mainz,Große Bleiche,55116,49.989973,8.244681,878,Villa,Luxuriöse Villa mit beeindruckendem Blick.,"Eine Villa der Extraklasse: Großzügige Räume, hohe Decken und eine luxuriöse Ausstattung machen dieses Anwesen einzigartig. Der weitläufige Garten lädt zum Entspannen ein. Die Innenstadt ist in wenigen Minuten erreichbar.",1.177.379.97 €,https://images.unsplash.com/photo-1592181051148-dc7cf0dc51f6
879,Julia Neumann,Bayern,Augsburg,Königsplatz,86150,48.372544,10.89735,880,Haus,Gemütliches Haus in einer grünen Umgebung.,Dieses Haus vereint klassischen Charme mit modernem Komfort. Die hochwertige Ausstattung und die großen Fenster sorgen für ein helles und freundliches Wohnambiente. In der Nachbarschaft befinden sich Spielplätze und Parks.,910.808.89 €,https://images.unsplash.com/photo-1597597922952-3ad4d096b5f2
884,Marie Schröder,Rheinland-Pfalz,Koblenz,Löhrstraße,56068,50.357308,7.590196,885,Haus,Charmantes Einfamilienhaus in einer ruhigen Straße.,"Dieses Haus überzeugt durch seine großzügige Raumaufteilung und den gepflegten Garten. Ideal für Familien, die ein ruhiges Umfeld suchen. Die moderne Küche und das helle Wohnzimmer laden zum Verweilen ein. In der Nähe befinden sich Schulen und Kindergärten.",654.718.78 €,https://images.unsplash.com/photo-1600585154340-be6161a56a0c
885,Finn Richter,Bremen,Bremen,Schlachte,28195,53.081037,8.805625,886,Villa,Luxuriöse Villa mit beeindruckendem Blick.,"Eine Villa der Extraklasse: Großzügige Räume, hohe Decken und eine luxuriöse Ausstattung machen dieses Anwesen einzigartig. Der weitläufige Garten lädt zum Entspannen ein. Die Innenstadt ist in wenigen Minuten erreichbar.",1.718.501.06 €,https://images.unsplash.com/photo-1613977257366-130f53a0161a
887,Felix Koch,Niedersachsen,Osnabrück,Große Straße,49074,52.277523,8.045936,888,Villa,Elegante Villa in einem ruhigen Vorort.,"Eine Villa der Extraklasse: Großzügige Räume, hohe Decken und eine luxuriöse Ausstattung machen dieses Anwesen einzigartig. Der weitläufige Garten lädt zum Entspannen ein. Die Innenstadt ist in wenigen Minuten erreichbar.",2.127.852.19 €,https://images.unsplash.com/photo-1613977257366-130f53a0161a
888,Lea Wolf,Baden-Württemberg,Freiburg,Bertoldstraße,79098,47.997815,7.845172,889,Haus,Charmantes Einfamilienhaus in einer ruhigen Straße.,Dieses Haus vereint klassischen Charme mit modernem Komfort. Die hochwertige Ausstattung und die großen Fenster sorgen für ein helles und freundliches Wohnambiente. In der Nachbarschaft befinden sich Spielplätze und Parks.,814.162.91 €,https://images.unsplash.com/photo-1600585155031-34d0b7b91b77
894,Jonas Hartmann,Bremen,Bremen,Am Wall,28195,53.080453,8.80305,895,Haus,Gemütliches Haus in einer grünen Umgebung.,Ein Haus mit viel Potenzial: Die geräumigen Zimmer bieten vielfältige Nutzungsmöglichkeiten. Der Garten ist perfekt für entspannte Nachmittage. Einkaufsmöglichkeiten und Ärzte sind in wenigen Minuten erreichbar.,587.545.54 €,https://images.unsplash.com/photo-1600585155031-34d0b7b91b77
898,Sophia Schwarz,Bremen,Bremen,Schlachte,28195,53.077468,8.797566,899,Villa,Luxuriöse Villa mit beeindruckendem Blick.,"Eine Villa der Extraklasse: Großzügige Räume, hohe Decken und eine luxuriöse Ausstattung machen dieses Anwesen einzigartig. Der weitläufige Garten lädt zum Entspannen ein. Die Innenstadt ist in wenigen Minuten erreichbar.",1.368.071.04 €,https://images.unsplash.com/photo-1592181051148-dc7cf0dc51f6
899,Maximilian Wolf,Niedersachsen,Osnabrück,Große Straße,49074,52.278627,8.043375,900,Haus,Charmantes Einfamilienhaus in einer ruhigen Straße.,Ein Haus mit viel Potenzial: Die geräumigen Zimmer bieten vielfältige Nutzungsmöglichkeiten. Der Garten ist perfekt für entspannte Nachmittage. Einkaufsmöglichkeiten und Ärzte sind in wenigen Minuten erreichbar.,773.791.84 €,https://images.unsplash.com/photo-1600585155031-34d0b7b91b77
901,Luis Becker,Saarland,Saarbrücken,Bahnhofstraße,66111,49.239324,6.998354,902,Wohnung,Gemütliche Wohnung im Herzen der Stadt.,Diese renovierte Wohnung liegt in einem ruhigen Wohnviertel und besticht durch ihren klassischen Schnitt. Ein großzügiger Wohnbereich und ein geräumiges Schlafzimmer bieten viel Platz. Schulen und Parks sind bequem zu Fuß erreichbar.,143.564.08 €,https://images.unsplash.com/photo-1560180474-e8563fd75f98
904,Luis Richter,Bremen,Bremen,Am Wall,28195,53.079306,8.801599,905,Villa,Luxuriöse Villa mit beeindruckendem Blick.,"Diese Villa kombiniert moderne Architektur mit klassischer Eleganz. Großzügige Räume, ein Pool und eine edle Küche bieten höchsten Wohnkomfort. Ideal für Familien, die Wert auf Stil und Komfort legen.",2.109.283.69 €,https://images.unsplash.com/photo-1592181051148-dc7cf0dc51f6
910,Hannah Müller,Niedersachsen,Braunschweig,Schlossplatz,38100,52.272771,10.524089,911,Haus,Einladendes Haus in einem familienfreundlichen Viertel.,Dieses Haus vereint klassischen Charme mit modernem Komfort. Die hochwertige Ausstattung und die großen Fenster sorgen für ein helles und freundliches Wohnambiente. In der Nachbarschaft befinden sich Spielplätze und Parks.,613.052.86 €,https://images.unsplash.com/photo-1600585154340-be6161a56a0c
911,Finn Zimmermann,Hessen,Wiesbaden,Marktplatz,65183,50.084603,8.246635,912,Villa,Luxuriöse Villa mit beeindruckendem Blick.,"Eine Villa der Extraklasse: Großzügige Räume, hohe Decken und eine luxuriöse Ausstattung machen dieses Anwesen einzigartig. Der weitläufige Garten lädt zum Entspannen ein. Die Innenstadt ist in wenigen Minuten erreichbar.",3.734.099.14 €,https://images.unsplash.com/photo-1592181051148-dc7cf0dc51f6
914,Noah Richter,Niedersachsen,Braunschweig,Schlossplatz,38100,52.27065,10.526724,915,Haus,Modernes Haus in einem aufstrebenden Wohngebiet.,Ein Haus mit viel Potenzial: Die geräumigen Zimmer bieten vielfältige Nutzungsmöglichkeiten. Der Garten ist perfekt für entspannte Nachmittage. Einkaufsmöglichkeiten und Ärzte sind in wenigen Minuten erreichbar.,766.033.75 €,https://images.unsplash.com/photo-1597597922952-3ad4d096b5f2
916,Anna Schmitz,Nordrhein-Westfalen,Dortmund,Brückstraße,44135,51.517853,7.462155,917,Villa,Exklusive Villa in gehobener Wohnlage.,"Eine Villa der Extraklasse: Großzügige Räume, hohe Decken und eine luxuriöse Ausstattung machen dieses Anwesen einzigartig. Der weitläufige Garten lädt zum Entspannen ein. Die Innenstadt ist in wenigen Minuten erreichbar.",1.566.653.84 €,https://images.unsplash.com/photo-1592181051148-dc7cf0dc51f6
920,Mia Neumann,Niedersachsen,Hannover,Bahnhofstraße,30159,52.374965,9.731575,921,Wohnung,Stilvolles Studio in der belebten Innenstadt.,Diese renovierte Wohnung liegt in einem ruhigen Wohnviertel und besticht durch ihren klassischen Schnitt. Ein großzügiger Wohnbereich und ein geräumiges Schlafzimmer bieten viel Platz. Schulen und Parks sind bequem zu Fuß erreichbar.,157.270.63 €,https://images.unsplash.com/photo-1593088411905-9b7a2d7e6f3e
929,Hannah Wagner,Nordrhein-Westfalen,Düsseldorf,Schadowstraße,40212,51.226019,6.770422,930,Haus,Charmantes Einfamilienhaus in einer ruhigen Straße.,Ein Haus mit viel Potenzial: Die geräumigen Zimmer bieten vielfältige Nutzungsmöglichkeiten. Der Garten ist perfekt für entspannte Nachmittage. Einkaufsmöglichkeiten und Ärzte sind in wenigen Minuten erreichbar.,729.697.33 €,https://images.unsplash.com/photo-1600585155031-34d0b7b91b77
931,Luis Hartmann,Nordrhein-Westfalen,Essen,Viehofer Platz,45127,51.456839,7.01591,932,Haus,Charmantes Einfamilienhaus in einer ruhigen Straße.,Dieses Haus vereint klassischen Charme mit modernem Komfort. Die hochwertige Ausstattung und die großen Fenster sorgen für ein helles und freundliches Wohnambiente. In der Nachbarschaft befinden sich Spielplätze und Parks.,854.388.35 €,https://images.unsplash.com/photo-1600585154340-be6161a56a0c
934,Anna Schmitz,Niedersachsen,Oldenburg,Lange Straße,26122,53.145728,8.21842,935,Villa,Großzügige Villa mit weitläufigem Garten.,Diese Villa bietet exklusives Wohnen in einer der besten Lagen der Stadt. Mit ihrer weitläufigen Terrasse und dem gepflegten Garten ist sie perfekt für anspruchsvolle Familien. Hochwertige Materialien und elegante Details prägen das Interieur.,2.255.404.69 €,https://images.unsplash.com/photo-1592181051148-dc7cf0dc51f6
938,Sophia Becker,Berlin,Berlin,Kurfürstendamm,10719,52.518322,13.409314,939,Wohnung,Stilvolles Studio in der belebten Innenstadt.,Diese Wohnung bietet modernen Wohnkomfort in zentraler Lage. Die offene Raumgestaltung schafft ein großzügiges Raumgefühl. Die großen Fenster sorgen für viel Licht. Ideal für Singles oder Paare. Einkaufsmöglichkeiten und öffentliche Verkehrsmittel befinden sich in unmittelbarer Nähe.,210.215.34 €,https://images.unsplash.com/photo-1560180474-e8563fd75f98
947,Maximilian Schröder,Brandenburg,Potsdam,Lindenstraße,14467,52.390818,13.065737,948,Haus,Charmantes Einfamilienhaus in einer ruhigen Straße.,Ein Haus mit viel Potenzial: Die geräumigen Zimmer bieten vielfältige Nutzungsmöglichkeiten. Der Garten ist perfekt für entspannte Nachmittage. Einkaufsmöglichkeiten und Ärzte sind in wenigen Minuten erreichbar.,838.652.16 €,https://images.unsplash.com/photo-1597597922952-3ad4d096b5f2
948,Hannah Krüger,Nordrhein-Westfalen,Dortmund,Westenhellweg,44137,51.511601,7.468437,949,Haus,Modernes Haus in einem aufstrebenden Wohngebiet.,Ein Haus mit viel Potenzial: Die geräumigen Zimmer bieten vielfältige Nutzungsmöglichkeiten. Der Garten ist perfekt für entspannte Nachmittage. Einkaufsmöglichkeiten und Ärzte sind in wenigen Minuten erreichbar.,697.304.86 €,https://images.unsplash.com/photo-1600585154340-be6161a56a0c
952,Ben Schmitz,Rheinland-Pfalz,Mainz,Große Bleiche,55116,49.993861,8.246443,953,Haus,Charmantes Einfamilienhaus in einer ruhigen Straße.,"Dieses Haus überzeugt durch seine großzügige Raumaufteilung und den gepflegten Garten. Ideal für Familien, die ein ruhiges Umfeld suchen. Die moderne Küche und das helle Wohnzimmer laden zum Verweilen ein. In der Nähe befinden sich Schulen und Kindergärten.",544.652.53 €,https://images.unsplash.com/photo-1600585154340-be6161a56a0c
975,Anna Becker,Nordrhein-Westfalen,Essen,Kettwiger Straße,45127,51.45135,7.012633,976,Haus,Charmantes Einfamilienhaus in einer ruhigen Straße.,Dieses Haus vereint klassischen Charme mit modernem Komfort. Die hochwertige Ausstattung und die großen Fenster sorgen für ein helles und freundliches Wohnambiente. In der Nachbarschaft befinden sich Spielplätze und Parks.,731.281.20 €,https://images.unsplash.com/photo-1600585155031-34d0b7b91b77
977,Marie Müller,Bremen,Bremen,Ostertorsteinweg,28203,53.08422,8.800812,978,Haus,Gemütliches Haus in einer grünen Umgebung.,"Dieses Haus überzeugt durch seine großzügige Raumaufteilung und den gepflegten Garten. Ideal für Familien, die ein ruhiges Umfeld suchen. Die moderne Küche und das helle Wohnzimmer laden zum Verweilen ein. In der Nähe befinden sich Schulen und Kindergärten.",635.780.95 €,https://images.unsplash.com/photo-1597597922952-3ad4d096b5f2
988,Lukas Neumann,Hessen,Darmstadt,Rheinstraße,64283,49.874221,8.648111,989,Wohnung,Gemütliche Wohnung im Herzen der Stadt.,Diese Wohnung bietet modernen Wohnkomfort in zentraler Lage. Die offene Raumgestaltung schafft ein großzügiges Raumgefühl. Die großen Fenster sorgen für viel Licht. Ideal für Singles oder Paare. Einkaufsmöglichkeiten und öffentliche Verkehrsmittel befinden sich in unmittelbarer Nähe.,338.632.44 €,https://images.unsplash.com/photo-1560180474-e8563fd75f98
989,Jonas Fischer,Schleswig-Holstein,Kiel,Rathausstraße,24103,54.32645,10.117896,990,Villa,Elegante Villa in einem ruhigen Vorort.,"Eine Villa der Extraklasse: Großzügige Räume, hohe Decken und eine luxuriöse Ausstattung machen dieses Anwesen einzigartig. Der weitläufige Garten lädt zum Entspannen ein. Die Innenstadt ist in wenigen Minuten erreichbar.",3.354.992.87 €,https://images.unsplash.com/photo-1592181051148-dc7cf0dc51f6
990,Sophia Neumann,Baden-Württemberg,Karlsruhe,Marktplatz,76133,49.007895,8.406139,991,Haus,Einladendes Haus in einem familienfreundlichen Viertel.,"Dieses Haus überzeugt durch seine großzügige Raumaufteilung und den gepflegten Garten. Ideal für Familien, die ein ruhiges Umfeld suchen. Die moderne Küche und das helle Wohnzimmer laden zum Verweilen ein. In der Nähe befinden sich Schulen und Kindergärten.",368.681.31 €,https://images.unsplash.com/photo-1597597922952-3ad4d096b5f2
993,Paul Müller,Bremen,Bremen,Ostertorsteinweg,28203,53.080268,8.798209,994,Haus,Einladendes Haus in einem familienfreundlichen Viertel.,Ein Haus mit viel Potenzial: Die geräumigen Zimmer bieten vielfältige Nutzungsmöglichkeiten. Der Garten ist perfekt für entspannte Nachmittage. Einkaufsmöglichkeiten und Ärzte sind in wenigen Minuten erreichbar.,921.236.00 €,https://images.unsplash.com/photo-1597597922952-3ad4d096b5f2
995,Jonas Richter,Bremen,Bremen,Schlachte,28195,53.079281,8.797922,996,Villa,Großzügige Villa mit weitläufigem Garten.,"Diese Villa kombiniert moderne Architektur mit klassischer Eleganz. Großzügige Räume, ein Pool und eine edle Küche bieten höchsten Wohnkomfort. Ideal für Familien, die Wert auf Stil und Komfort legen.",3.646.138.43 €,https://images.unsplash.com/photo-1592181051148-dc7cf0dc51f6
998,Lea Richter,Baden-Württemberg,Stuttgart,Marktplatz,70173,48.774749,9.184272,999,Haus,Gemütliches Haus in einer grünen Umgebung.,Dieses Haus vereint klassischen Charme mit modernem Komfort. Die hochwertige Ausstattung und die großen Fenster sorgen für ein helles und freundliches Wohnambiente. In der Nachbarschaft befinden sich Spielplätze und Parks.,328.052.51 €,https://images.unsplash.com/photo-1597597922952-3ad4d096b5f2
